Longitude,Latitude,Source,Name,Type,Responsable,Street,City,Telephone,Mobile,Mail,Site Web,Label,Products,Horaires
6.443479,46.7046743,http://www.biovaud.ch/,Hauser Thomas,-,Hauser Thomas,Le Crêt Neuf,1275 Chéserex,022 369 32 01,079 137 23 77,au-cret-neuf@bluewin.ch,-,-,-,Sur demande: 022 369 32 01
6.4962221,46.6342154,https://www.a-la-ferme.ch/chercher-des-offres/details/farm/ferme-des-fontaines/,Ferme des Fontaines,-,Claude et Magali guichard,Rue des Fontaines 30,1413 Orzens,021 887 76 71,-,famille.guichard@bluewin.ch,-,Swiss GAP,-,-
6.4078105,46.64625,https://www.a-la-ferme.ch/chercher-des-offres/details/farm/domaine-de-bon-boccard/,Domaine de Bon-Boccard,-,Steve et Virginie Bugnon,Ch. de Bon-Boccard 1,1162 Saint-Prex,021 806 42 81,-,-,-,Swiss GAP,-,-
6.8001564,46.4965701,https://www.a-la-ferme.ch/chercher-des-offres/details/farm/thuillard/,Thuillard,-,Claude-Pascal Thuillard,Frémérin 2,1415 Démoret,079 291 14 05,-,-,-,NaturaBeef,-,-
6.477179,46.6951311,https://www.a-la-ferme.ch/chercher-des-offres/details/farm/famille-candaux-thierry/,Famille Candaux Thierry,Venir chercher,Thierry Candaux,Rte du Dîme 8,1322 Croy,024 453 15 49,079 418 80 49,-,-,Bio Suisse,-,-
7.0344321,46.2900124,https://www.a-la-ferme.ch/chercher-des-offres/details/farm/ferme-de-etienne/,Ferme de Etienne,-,Vincent et Marie-Laure Etienne,Rue du Château 20,1308 La Chaux,021 861 33 54,-,-,-,Bio Suisse,-,-
6.7312616,46.488741,https://www.a-la-ferme.ch/chercher-des-offres/details/farm/ponnaz-et-fils/,Ponnaz et Fils,-,Louis-Philipe Ponnaz,Rte de Vevey 7,1096 Cully,021 799 13 18,076 563 30 60,ponnaz-et-fils@bluewin.ch,-,-,-,-
6.5721723,46.5289083,https://www.a-la-ferme.ch/chercher-des-offres/details/farm/femmes-solidaires-sans-frontieres/,Femmes solidaires sans frontières,-,Nicole Pletscher,Avenue de la Gare 90,1022 Chavannes-près-Renens,021 691 51 07,-,-,-,-,-,-
6.748841,46.7421239,https://www.a-la-ferme.ch/chercher-des-offres/details/farm/moevenpick-relais-chablais-est/,Mövenpick Relais Chablais Est,-,Helmut Heingartner,Autoroute A9 direction Lausanne,1853 Yvorne,-,-,-,-,-,-,-
6.6048872,46.5873041,http://www.marchepaysan.ch/site/fr/trouver-un-producteur/par-produits/-106-blondel-l-esprit-du-fruit/,Blondel  L'Esprit du Fruit,-,Blondel Michel,Rte d'Yverdon 19,Crissier,021 634 13 40,079 286 48 31,miblondel@bluewin.ch,http://www.mblondel.ch,PER,"Abricots,Ail,Alcools forts,Asperges blanches,Asperges vertes,Aubergines,Bettraves à salade cuites,Bois de feu,Brocoli,Brugnons blancs,Brugnons jaunes,Cardons,Carottes,Carottes en bottes,Carottes nouvelles,Cerises,Cerises Bigarreau,Cerises noires,Charcuterie,Choux de Bruxelles,Choux-fleurs,Choux romanesco,Concombres,Confitures,Courges,Courges musquée de Provence,Courgesttes,Céleri branche,Céleri pomme,Côtes de bette,Dent de lion,Eaux-de-vie,Echalotes,Endives,Epinards,Fenouil,Framboises,Fruits en conserve,Fruits frais,Griottes,Haricots,Haricots verts,Huile de noix,Huiles,Jus de fruits,Jus de pomme pasteurisé,Kiwis,Laitues romaines,Légumes frais,Miel,Mirabelles,Navets,Noix,Oeufs,Oeufs de poule,Oignons,Oignons bottes,Poireaux,Poires,Poires Beurré Bosc,Poires Comice,Poires conférence,Poires Williams,Poires à botzi,Poivrons,Pommes,Pommes Boskoop,Pommes Braeburn,Pommes de terre,Pommes de terre Agria,Pommes de terre Bintje,Pommes de terre charlotte,Pommes de terre nouvelles,Pommes Elstar,Pommes Gala,Pommes Golden,Pommes Gravenstein,Pommes Mairac,Pommes Pinova,Produits de la ruche,Pruneaux,Pêches,Pêches blanches,Pêches de vigne,Pêches jaunes,Pêches plates,Radis,Radis blancs,Raisinets,Raisinée,Rampon,Raves,Raves bottes,Reines-Claudes,Rhubarbe,Salades,Salades batavia,Salades pommées,Tomates,Tomates cerises,Tomates charnues,Tomates coeur de boeuf,Tomates en grappes,Tomates San Marzano,Viande de boeuf,Viande de porc,Viande d’Agneau,Vin blanc,Vin rosé,Vin rouge,Vins,Volaille",Le vendredi de 14 h à 18 h 30.
6.6017915,46.6380191,http://www.marchepaysan.ch/site/fr/trouver-un-producteur/par-produits/-38-favre-anna-et-lionel/,Favre Anna et Lionel,Vente directe en libre-service,Panier du Bisse,Impasse des Frigos ZI d'Ecône,Riddes,076 480 91 83,-,lionel.favre@bluewin.ch,http://www.panierdubisse.ch,Bio Suisse,"Abricots,Ail,Artichauts,Asperges blanches,Aubergines,Betteraves à salade,Brocoli,Cardons,Cardons épineux,Carottes,Carottes de couleurs,Carottes en bottes,Carottes nouvelles,Choux,Choux blancs,Choux chinois,Choux de Bruxelles,Choux-fleurs,Choux frisés,Choux nouveaux,Choux,Pak-choï,Choux pointus,Choux raves,Choux romanesco,Choux rouges,Choux à choucroute,Concombres,Concombres Nostranis,Courges musquée de Provence,Courgesttes,Cresson,Céleri branche,Céleri pomme,Côtes de bette,Echalotes,Epinards,Fenouil,Fraises,Fraises des bois,Framboises,Fruits frais,Haricots,Jus de fruits,Jus de pomme pasteurisé,Jus de raisin,Laitues de Morges,Laitues romaines,Légumes en conserve,Légumes frais,Maïs sucrés,Melons,Mûres,Navets,Oignons,Panais,Pastèques,Physallis,Potimarrons,Raisin de table",Le chalet 7 jours sur 7 de 8h00 à 20h00.
6.5402572,46.5222548,http://www.marchepaysan.ch/site/fr/trouver-un-producteur/par-produits/-16-rossier-christian-et-denis/,Rossier Christian et Denis,Marché ou magasin à la ferme,Rossier Christian et Denis,Pl. du Tilleul 1,Denges,079 409 14 61,-,chris.ross@bluewin.ch,http://,PER IP-Suisse,"Abricots,Ail,Asperges vertes,Aubergines,Basilic,Betteraves à salade,Bettraves à salade cuites,Brocoli,Cardons,Carottes,Carottes de couleurs,Carottes nouvelles,Cerises,Choux,Choux blancs,Choux chinois,Choux-fleurs,Choux frisés,Choux nouveaux,Choux pointus,Choux raves,Concombres,Courges,Courges musquée de Provence,Courges rouge d’estampes,Courgesttes,Courgesttes jaunes,Céleri branche,Céleri pomme,Côtes de bette,Echalotes,Endives,Epinards,Epinards à salade,Fenouil,Fraises,Framboises,Fruits de saison,Fruits en conserve,Fruits frais,Fèves,Griottes,Haricots,Haricots fins,Haricots jaunes,Haricots rames,Haricots verts,Haricots violets,Herbes aromatiques,Tisanes,Huile de noix,Huiles,Jus de fruits,Jus de pomme pasteurisé,Kiwis,Laitues de Morges,Légumes de saison,Légumes frais,Maïs sucrés,Miel,Mirabelles,Nashis,Navets,Noix,Oeufs,Oeufs de poule,Oignons,Oignons bottes,Persil,Piments,Poireaux,Poireaux verts,Pois,Pois croquants,Pois mange-tout,Pois à écosser,Poivrons,Pommes,Pommes Boskoop,Pommes Braeburn,Pommes de terre,Pommes de terre virgules,Pommes Elstar,Pommes Gala,Pommes Golden,Pommes Gravenstein,Pommes Maigold,Pommes Primerouge,Potimarrons,Produits de la ruche,Pruneaux,Prunes,Pâtissons,Pêches blanches,Pêches de vigne,Pêches jaunes,Radis,Raisin de table,Rampon,Raves,Raves bottes,Reines-Claudes,Rhubarbe,Roquettes,Salades,Salades batavia,Salades feuilles de chêne,Salades iceberg,Salades lollo,Salades pain de sucre,Salades scaroles,Salades scaroles frisées,Salades Vérone,Scorsonères,Sirops,Tomates,Tomates cerises,Tomates charnues,Tomates en grappes,Tomates roses de Berne,Tomates San Marzano,Topinambour",Mardi et vendredi de 15h à 18h.
6.5367217,46.644744,http://www.marchepaysan.ch/site/fr/trouver-un-producteur/par-produits/-74-la-ferme-a-gachet/,La Ferme à Gachet,Marché ou magasin à la ferme,La Ferme à Gachet,La Croix,Eclépens,021 866 73 36,-,fdgachet@bluewin.ch,http://www.lafermeagachet.ch,PER IP-Suisse,"Abricots,Alcools forts,Asperges vertes,Aubergines,Betteraves à salade,Carottes,Carottes de couleurs,Carottes en bottes,Carottes nouvelles,Cassis,Cerises,Cerises Bigarreau,Choux,Choux blancs,Choux chinois,Choux de Bruxelles,Choux-fleurs,Choux frisés,Choux nouveaux,Choux pointus,Choux raves,Choux rouges,Concombres,Courges musquée de Provence,Courgesttes,Courgesttes jaunes,Courgesttes rondini,Céleri pomme,Côtes de bette,Dent de lion,Echalotes,Endives,Epinards,Epinards à salade,Fenouil,Fraises,Fraises mara des bois,Framboises,Fruits en conserve,Fruits frais,Haricots,Herbes aromatiques,Tisanes,Huile de colza,Huile de noix,Huiles,Laitues de Morges,Liqueurs,Légumes frais,Miel,Mirabelles,Moutarde,Mûres,Oeufs,Oeufs de poule,Oignons,Panais,Persil,Poires,Poires Williams,Pommes,Pommes Gala,Pommes Gravenstein,Pommes Primerouge,Potimarrons,Produits de la ruche,Prunes,Raisinée,Rhubarbe,Sirops,Vinaigre et condiments,Vins de fruits",L'hiver Lundi mercredi jeudi et vendredi: 15h-18h30 Samedi: 8h30-16h30 L'été Lundi-samedi: 8h-12h et 13h à 18h30.
6.4511645,46.6913279,http://www.marchepaysan.ch/site/fr/trouver-un-producteur/par-produits/-11-au-petit-coin-de-paradis/,Au petit coin de Paradis,Marché en ville,Serge et Daniela Grandjean,Rue du Quin 4,Juriens,024 453 12 23,-,bymyfamg6@bluewin.ch,http://,PER IP-Suisse,"Abricots,Alcools forts,Avoine,Basilic,Betteraves à salade,Biscuits,Bois de feu,Boulangerie,Bricelets,Caramels,Carottes,Cassis,Cerfeuil,Cerises,Choux blancs,Choux-fleurs,Choux à choucroute,Ciboulette,Confitures,Courges,Courgesttes,Céleri pomme,Céréales,Côtes de bette,Eaux-de-vie,Epinards,Estragon,Farine,Fraises,Framboises,Fromages de brebis à pâte dure,Fruits de saison,Fruits en conserve,Fruits frais,Groseilles,Gâteaux,Haricots,Herbes aromatiques,Tisanes,Herbes à maggi,Huile de colza,Huile de noix,Huiles,Jus de fruits,Jus de pomme pasteurisé,Kiwis,Laitues de Morges,Liqueurs,Légumes frais,Maïs sucrés,Meringues,Miel,Mûres,Navets,Oeufs,Oeufs de poule,Oignons,Pain,Persil,Persils tubéreux,Pesto,Poireaux,Poires,Pommes,Pommes Boskoop,Pommes de terre,Pommes de terre charlotte,Pommes de terre nouvelles,Pommes Maigold,Produits de la ruche,Pâtisserie et confiserie,Pâtisseries,Pâtissons,Radis,Raisin de table,Raisinets,Raves,Rhubarbe,Romarin,Salades,Salades feuilles de chêne,Salades iceberg,Salades pommées,Salades scaroles frisées,Salades à tondre,Sauces,Sauces diverses,Sauge,Sirops,Thym,Tisanes,Tomates,Tomates cerises,Tomates en grappes,Tomates roses de Berne,Tresse",Au Sentier le jeudi de 7h à 12h de mai à octobre et de 14h30 à 17h45 de novembre à mars.
7.203987,46.173958,http://www.marchepaysan.ch/site/fr/trouver-un-producteur/par-produits/-40-philfruits/,Philfruits,Marché ou magasin à la ferme,Philippe Dorsaz,Portions Neuves 25,Riddes,079 242 79 92,-,info@philfruits.ch,http://www.philfruits.ch,PER,"Abricots,Alcools forts,Basilic,Boulangerie,Cassis,Cerfeuil,Cerises,Charcuterie,Choux-fleurs,Ciboulette,Eaux-de-vie,Fraises,Framboises,Fromages de chèvre à pâte mi-dure,Fromages de chèvre à pâte molle,Fromages mi-dur,Fromages à pâte dure,Fromages à pâte molle,Fruits frais,Groseilles,Jambon blanc,Jus de fruits,Jus multifruits,Liqueurs,Légumes de saison,Légumes frais,Melons,Miel,Mûres,Oeufs,Oeufs de poule,Pain,Poires,Poires Williams,Pommes,Pommes de terre,Pommes de terre virgules,Produits laitiers de chèvre,Produits laitiers de vache,Prunes,Pêches,Raisin de table,Rhubarbe,Salades,Saucisses,Serac de chèvre,Sirops,Sérac,Thym,Tomates,Tomates coeur de boeuf,Tomates roses de Berne,Tommes,Tommes de chèvre,Viandes fumées,Viandes séchées,Vin blanc,Vin rosé,Vin rouge,Vins",Kiosque à fruits Rte du St-Bernard Bovernier d'avril à fin octobre de 10 h à 19 h.
6.8840136,46.4560959,http://www.marchepaysan.ch/site/fr/trouver-un-producteur/par-produits/-63-fruits-buehlmann/,Fruits Bühlmann,Marché ou magasin à la ferme,Fruits Bühlmann,Ch. de la Poneyre,Blonay,076 344 11 83,-,xw@fruitsbuhlmann.ch,http://www.fruitsbuhlmann.ch,PER IP-Suisse,"Abricots,Alcools forts,Boulangerie,Caramels,Carottes,Cerises,Charcuterie,Choux blancs,Courgesttes,Côtes de bette,Eaux-de-vie,Endives,Fenouil,Fromages de chèvre à pâte dure,Fromages de chèvre à pâte molle,Fromages mi-dur,Fromages à pâte dure,Fruits en conserve,Fruits frais,Huiles,Huiles autres,Jus de fruits,Jus de pomme pasteurisé,Jus de raisin,Légumes frais,Miel,Mirabelles,Oeufs,Oeufs de poule,Oignons,Pain,Poireaux,Poires,Poires Comice,Poires conférence,Poires Williams,Pommes,Pommes Boskoop,Pommes Braeburn,Pommes de terre,Pommes de terre nouvelles,Pommes Gala,Pommes Golden,Pommes Maigold,Pommes Mairac,Produits de la ruche,Produits laitiers de chèvre,Produits laitiers de vache,Pruneaux,Raisin de table,Raisinée,Rampon,Salades,Salami,Saucisses aux choux,Saucisson,Sirops,Sérac,Tomates,Tommes,Tommes de chèvre,Tresse,Vinaigre,Vinaigre et condiments,Vin blanc,Vin rosé,Vin rouge,Vins",-
6.2018388,46.3899136,http://www.marchepaysan.ch/site/fr/trouver-un-producteur/par-produits/-82-pradervand-nicolas-et-claire-lise/,Pradervand Nicolas et Claire-Lise,Vente directe en libre-service,Pradervand Nicolas et Claire-Lise,Rue des Fontaines 25,Signy,022 362 67 66,078 607 45 26,n.pradervand@gmail.com,http://www.judpom.ch,PER IP-Suisse,"Abricots,Alcools forts,Cerises Bigarreau,Confitures,Courges,Eaux-de-vie,Fraises,Framboises,Fruits en conserve,Jus de fruits,Jus de pomme frais,Jus de pomme pasteurisé,Lentilles,Légumes secs,Miel,Poires,Poires conférence,Poires Williams,Poires à botzi,Poires à rissoles,Pommes,Pommes Boskoop,Pommes de terre,Pommes de terre nouvelles,Pommes Elstar,Pommes Gala,Pommes Gravenstein,Potimarrons,Produits de la ruche,Raisin de table,Raisinée,Sirops",Dans une grange avec une grande pomme rouge sur la façade.
6.2497555,46.4893948,http://www.marchepaysan.ch/site/fr/trouver-un-producteur/par-produits/-19-famille-borboen/,Famille Borboën,Marché ou magasin à la ferme,Famille Borboën,Rte du Lac 15,Denges,021 801 15 81,079 647 40 23,cborboen@swissonline.ch,http://,PER Suisse-Garantie,"Abricots,Alcools forts,Cerises,Confitures,Fraises,Fraises mara des bois,Framboises,Fruits de saison,Fruits en conserve,Fruits frais,Huile de noix,Huiles,Jus de fruits,Jus de pomme pasteurisé,Légumes de saison,Légumes frais,Miel,Mirabelles,Oeufs,Oeufs de poule,Poires,Poires conférence,Pommes,Pommes Boskoop,Pommes Braeburn,Pommes Elstar,Pommes Gala,Pommes Golden,Pommes Gravenstein,Pommes Maigold,Pommes Pinova,Pommes Primerouge,Produits de la ruche,Raisin de table,Raisinée,Reines-Claudes,Sirops,Vinaigre,Vinaigre et condiments,Vins,Vins de fruits",Samedi de 9h à 12h30.
6.439725,46.477584,http://www.marchepaysan.ch/site/fr/trouver-un-producteur/par-produits/-57-pfirter-pierre-olivier-et-lorella/,Pfirter Pierre-Olivier et Lorella,Marché ou magasin à la ferme,Pfirter Pierre-Olivier et Lorella,Ch. des Oiseaux 6,Saint-Prex,021 806 14 20,-,lorella@pfirter.org,http://,PER IP-Suisse,"Abricots,Asperges vertes,Aubergines,Basilic,Betteraves à salade,Brocoli,Cardons épineux,Carottes,Carottes en bottes,Carottes nouvelles,Cerises,Choux blancs,Choux frisés,Choux rouges,Concombres,Concombres Nostranis,Courges musquée de Provence,Courgesttes,Céleri pomme,Echalotes,Endives,Epinards à salade,Fraises,Framboises,Fruits frais,Haricots jaunes,Laitues romaines,Légumes frais,Mesclun,Mirabelles,Myrtilles,Oignons,Oignons bottes,Poireaux,Poireaux nouveaux,Poires,Poivrons,Pommes,Pommes de terre,Pommes de terre nouvelles,Pommes Gala,Potimarrons,Pêches jaunes,Radis,Raves,Roquettes,Salades,Salades batavia,Salades feuilles de chêne,Salades iceberg,Salades pommées,Salades trévises,Salades à tondre,Sauces,Sauces diverses,Tomates,Tomates cerises,Tomates charnues,Tomates en grappes,Tomates roses de Berne,Tomates San Marzano,Topinambour",Printemps: mardi et vendredi de 15h à 18h Juillet à décembre: vendredi de 15 h à 18 h.
6.1286216,46.3111817,http://www.marchepaysan.ch/site/fr/trouver-un-producteur/par-produits/-105-favre-christine/,Favre Christine,Marché ou magasin à la ferme,Favre Christine,Ch. du Moulin 5,St-Barthélemy,021 882 54 69,-,bcfvfavre@hotmail.com,http://,PER,"Abricots,Asperges vertes,Aubergines,Betteraves à salade,Bois de feu,Boulangerie,Choux de Bruxelles,Choux-fleurs,Choux rouges,Concombres,Courgesttes,Courgesttes à l’aigre doux,Céleri pomme,Côtes de bette,Demi ou quart de bête boeuf,Endives,Fenouil,Fraises,Framboises,Fruits en conserve,Fruits frais,Haricots,Huile de colza,Huiles,Jus de fruits,Jus de pomme pasteurisé,Légumes en conserve,Légumes frais,Melons,Miel,Myrtilles,Mûres,Oeufs,Oeufs de poule,Pain,Poireaux,Poires,Poires conférence,Pommes Boskoop,Pommes Gala,Poulets fermiers,Produits de la ruche,Pruneaux,Pâtissons,Raisinée,Reines-Claudes,Rhubarbe,Salades batavia,Salades scaroles,Salades à tondre,Sauces,Sauces diverses,Tomates,Tomates cerises,Tomates en grappes,Tomates roses de Berne,Topinambour,Tresse,Viande de boeuf,Volaille",Samedi de 9 h 30 à 11 h. + Pain et tresses.
6.5241191,46.5440226,http://www.marchepaysan.ch/site/fr/trouver-un-producteur/par-produits/-59-marche-du-taulard/,Marché du Taulard,Marché ou magasin à la ferme,Denis et Samuel Pache,Ch. du Boulard 1,Romanel sur Lausanne,021 647 81 22,-,info@taulard.ch,http://www.taulard.ch,PER IP-Suisse,"Abricots,Asperges vertes,Aubergines,Betteraves à salade,Brocoli,Cardons épineux,Carottes de couleurs,Carottes en bottes,Carottes nouvelles,Cerfeuil,Tubereux,Cerises,Cerises Bigarreau,Cerises noires,Choux blancs,Choux de Bruxelles,Choux-fleurs,Choux frisés,Choux pointus,Choux raves,Choux romanesco,Choux rouges,Concombres,Concombres Nostranis,Confitures,Courges,Courges musquée de Provence,Courgesttes,Courgesttes jaunes,Courgesttes rondini,Cresson,Céleri branche,Céleri pomme,Côtes de bette,Echalotes,Endives,Epinards,Epinards à salade,Fenouil,Fraises,Framboises,Fruits de saison,Fruits en conserve,Fruits frais,Fèves,Griottes,Haricots,Haricots fins,Haricots rames,Haricots verts,Huile de colza,Huile de noix,Huiles,Jus de fruits,Jus de pomme pasteurisé,Laitues romaines,Légumes de saison,Légumes frais,Maïs sucrés,Mesclun,Miel,Mirabelles,Mûres,Navets,Noix,Oeufs,Oeufs de poule,Oignons,Oignons bottes,Panais,Persils tubéreux,Poireaux,Poires,Pois mange-tout,Pois à écosser,Poivrons,Pommes,Pommes de terre,Potimarrons,Pourpier,Produits de la ruche,Pâtissons,Pêches,Pêches blanches,Pêches jaunes,Radis,Raisinets,Raisinée,Rampon,Raves,Rhubarbe,Roquette vivace,Salades,Salades batavia,Salades feuilles de chêne,Salades iceberg,Salades orientales Red Giant,Salades pain de sucre,Salades pommées,Salades à tondre,Scorsonères,Sirops,Tomates cerises,Tomates charnues,Tomates coeur de boeuf,Tomates roses de Berne,Tomates San Marzano,Topinambour",Mardi et vendredi: 15h-18h30 Chaque vendredi: viande de porc fermier et de mai à septembre fromages de brebis. Chaque mardi dès avril: fromages de chèvre.
6.7528186,46.703153,http://www.marchepaysan.ch/site/fr/trouver-un-producteur/par-produits/-20-la-petite-ligniere/,La Petite Lignière,Vente directe en libre-service,Pascal Chollet,Rte Suisse 55,Gland,076 305 11 96,-,info@lapetiteligniere.ch,http://www.lapetiteligniere.ch,PER,"Abricots,Asperges vertes,Cerises,Confitures,Fraises,Framboises,Fruits en conserve,Fruits frais,Jus de fruits,Jus de pomme pasteurisé,Légumes frais,Miel,Myrtilles,Oeufs,Oeufs de poule,Pommes,Produits de la ruche,Pêches,Rhubarbe,Sirops",-
6.6716826,46.7581038,http://www.marchepaysan.ch/site/fr/trouver-un-producteur/par-produits/-76-famille-vulliemin/,Famille Vulliemin,Marché en ville,Famille Vulliemin,Rte de Cronay 17,Pomy,024 425 90 86,079 281 20 71,info@vullieminpomy.ch,http://www.vullieminpomy.ch,Bio Suisse,"Abricots,Cassis,Cerises,Cerises Bigarreau,Cerises noires,Fraises,Fraises mara des bois,Fruits de saison,Fruits frais,Groseilles,Jus de fruits,Jus de pomme pasteurisé,Légumes de saison,Légumes frais,Mirabelles,Mûres,Nashis,Noix,Poires,Poires conférence,Poires Williams,Pommes,Pommes Arlet,Pommes Boskoop,Pommes de terre,Pommes Elstar,Pommes Gala,Pommes Golden,Pommes Gravenstein,Pommes Mairac,Pommes Pinova,Pommes Primerouge,Raisinets,Raisinée,Reines-Claudes,Rhubarbe",Yverdon Mardi et samedi de 8 h à 12 h Le Sentier: Jeudi de 8 h à 12 h (du 1er mai au 31 octobre).
6.2854388,46.4211416,http://www.marchepaysan.ch/site/fr/trouver-un-producteur/par-produits/-84-la-ferme-vaudoise/,La Ferme Vaudoise,Magasins en ville,La Ferme Vaudoise,Place de la Palud 5,Lausanne,021 351 35 55,-,info@lafermevaudoise.ch,http://www.lafermevaudoise.ch,-,"Agneau,Alcools forts,Aneth,Basilic,Beurre,Biscuits,Bières,Boulangerie,Bricelets,Caramels,Cerfeuil,Charcuterie,Ciboulette,Cidre,Confitures,Coriandre,Céréales,Eaux-de-vie,Estragon,Farine,Fromages mi-dur,Fromages à pâte dure,Fromages à pâte molle,Fruits de saison,Fruits en conserve,Fruits frais,Gâteaux,Herbes aromatiques,Tisanes,Herbes à maggi,Huiles,Huiles autres,Hydromels,Jambons,Laurier,Liqueurs,Légumes de saison,Légumes frais,Menthe,Meringues,Miel,Monarde,Moutarde,Pain,Persil,Poires,Poisson,Poulets,Produits de la ruche,Produits laitiers de brebis,Produits laitiers de chèvre,Produits laitiers de vache,Pâtes,Pâtisserie et confiserie,Raisinée,Romarin,Saucisses aux choux,Saucisse à rôtir,Saucisson,Sauge,Spiritueux,Thym,Tisanes,Tommes,Verveine,Viande d’Agneau,Viandes diverses,Viandes séchées,Vinaigre,Vinaigre et condiments,Vin blanc,Vin rosé,Vin rouge,Vins,Vins de fruits,Volaille,Yogourts,Yogourts de brebis",Lundi Mardi et Jeudi 9h00 à 13h00 et 14h00 à 18h30 Mercredi et Vendredi 9h00 à 18h30 Samedi 7h30 à 17h00.
6.468843,46.5560686,http://www.marchepaysan.ch/site/fr/trouver-un-producteur/par-produits/-70-ferme-courtois/,Ferme Courtois,Marché ou magasin à la ferme,Ferme Courtois,R. de la Branvaude 13,Versoix,022 755 43 16,-,lescourtois@bluewin.ch,http://www.fermecourtois.ch,PER,"Agneau,Alcools forts,Assortiment viande de porc,Avoine,Bières,Blés,Boeuf broutard,Bois de feu,Cailles,Charcuterie,Cidre,Coloquintes,Confitures,Cosmétiques,Courges,Céréales,Dinde,Dinde de Noël,Eaux-de-vie,Epautres,Fleurs,Sapins de Noël,Fleurs coupées,Fleurs en pot,Fromages de chèvre à pâte dure,Fromages de chèvre à pâte mi-dure,Fromages à pâte dure,Fruits de saison,Fruits en conserve,Fruits frais,Highland,Huile de colza,Huile de noix,Huile de tournesol,Huiles autres,Huiles,Essentielles,Hydromels,Lait de vache,Lapins,Lentilles,Lin,Liqueurs,Légumes de saison,Légumes frais,Légumes secs,Miel,Mousseux,Moutarde,Oeufs,Oeufs de poule,Pesto,Polenta poules à bouillir,Poulets,Poulets fermiers,Produits de bufflonnes,Produits de la ruche,Produits laitiers de chèvre,Produits laitiers de vache,Raisinée,Salami,Sarasin,Sauces,Spiritueux,Veau,Viande de boeuf,Viande de porc,Viandes diverses,Viandes séchées,Vinaigre,Vinaigre et condiments,Vin blanc,Vin rosé,Vin rouge,Vins,Vins de fruits,Volaille,Yogourts,Yogourts de chèvre",Lundi-mardi: 9h-12h et 13h30-18h Vendredi: 9h-18h Samedi: 9h-17h Fermeture annuelle: mois de janvier.
6.7868461,46.4932725,http://www.marchepaysan.ch/site/fr/trouver-un-producteur/par-produits/-4-martin-georges-et-fils/,Martin Georges et fils,Marché ou magasin à la ferme,Martin Georges et fils,Ch. de Cremières 2,Puidoux,021 946 25 01,-,-,http://,PER,"Agneau,Assortiment viande de boeuf,Assortiment viande de porc,Boeuf broutard,Cervelas,Charcuterie,Chipolata,Dinde,Jambon blanc,Lapins,Merguez,Miel,Oeufs,Oeufs de poule,Produits de la ruche,Salami,Saucisses,Saucisses aux choux,Saucisse à rôtir,Saucisson,Schübling,Terrines,Viande de boeuf,Viande de porc,Viande d’Agneau,Viandes diverses,Viandes fumées,Viandes séchées,Wienerli",Mardi jeudi et vendredi de 9h à 12h et de 13h30 à 18h Samedi de 9h à 12h et de 13h30 à 16h30 Fermé le dimanche lundi et mercredi.
6.7124401,46.5194309,http://www.biovaud.ch/http://www.biovaud.ch/,La Biergerie,-,Müller Mathieu,La Tuilière 2,1145 Bière,021 809 44 08,-,info@labiergerie.ch,www.labiergerie.ch,-,"Agneau,Peau de mouton",Sur demande: 021 809 44 08
6.7690227,46.5187518,http://www.marchepaysan.ch/site/fr/trouver-un-producteur/par-produits/-6-les-jardins-du-closy/,Les jardins du Closy,Magasins en ville,Laetitia Roset-Forney,Ch. des Envers 2,Puidoux,-,079 253 55 43,l.roset@bluewin.ch,http://,PER,"Ail,Ail des ours,Aneth,Artichauts,Asperges blanches,Asperges vertes,Aubergines,Basilic,Betteraves à salade,Bettraves à salade cuites,Brocoli,Carottes,Carottes de couleurs,Carottes en bottes,Carottes nouvelles,Cassis,Cerfeuil,Cerfeuil,Tubereux,Choux,Choux blancs,Choux chinois,Choux de Bruxelles,Choux-fleurs,Choux frisés,Choux nouveaux,Choux,Pak-choï,Choux pointus,Choux raves,Choux romanesco,Choux rouges,Ciboulette,Coloquintes,Concombres,Concombres Nostranis,Coriandre,Cornichons,Courges,Courges musquée de Provence,Courges rouge d’estampes,Courgesttes,Courgesttes jaunes,Courgesttes rondini,Cresson,Crônes,Céleri branche,Céleri pomme,Côtes de bette,Côtes de bette rouge,Côtes de bette à tondre,Dent de lion,Echalotes,Endives,Epinards,Epinards à salade,Estragon,Fenouil,Fleurs,Sapins de Noël,Fraises,Fraises des bois,Fraises mara des bois,Framboises,Fruits de saison,Fruits frais,Fèves,Griottes,Haricots,Haricots,Borlotti,Haricots coco,Haricots fins,Haricots jaunes,Haricots rames,Haricots verts,Herbes aromatiques,Tisanes,Herbes à maggi,Kiwis,Laitues de Morges,Laitues romaines,Laurier,Légumes de saison,Légumes frais,Maïs sucrés,Menthe,Mesclun,Mirabelles,Monarde,Myrtilles,Mûres,Navets,Noix,Oeufs,Oeufs de poule,Oignons,Oignons bottes,Oignons doux,Oignons rouges,Palla rossa,Panais,Pastèques,Persil,Persils tubéreux,Physallis,Poireaux,Poireaux blanchis,Poireaux nouveaux,Poireaux verts,Poires,Poires conférence,Poires Williams,Pois,Pois croquants,Pois mange-tout,Pois à écosser,Poivrons,Pommes,Pommes Boskoop,Pommes Braeburn,Pommes de terre,Pommes de terre Agria,Pommes de terre Bintje,Pommes de terre charlotte,Pommes de terre Félicia,Pommes de terre nouvelles,Pommes de terre nouvelles charlottes,Pommes de terre Victoria,Pommes de terre virgule ratte,Pommes de terre virgules,Pommes Gala,Pommes Gravenstein,Pommes Maigold,Pommes Pinova,Pommes Primerouge,Potimarrons,Pourpier,Pourpier d’hiver,Pruneaux,Prunes,Pâtissons,Pâtissons jaunes,Radis,Radis blancs,Radis noir,Raiforts,Raisin de table,Raisinets,Rampon,Raves,Raves bottes,Reines-Claudes,Rhubarbe,Romarin,Roquettes,Roquette vivace,Salades,Salades batavia,Salades feuilles de chêne,Salades iceberg,Salades lollo,Salades orientales Mizuna,Salades orientales Red Giant,Salades pain de sucre,Salades pain de sucre,Salades pommées,Salades scaroles,Salades scaroles frisées,Salades trévises,Salades Vérone,Salades à tondre,Salanova feuille de chêne verte,Salanova pommées rouges,Salanova pommées vertes,Sauge,Scorsonères,Thym,Tomates,Tomates cerises,Tomates charnues,Tomates coeur de boeuf,Tomates en grappes,Tomates roses de Berne,Tomates San Marzano,Topinambour,Verveine",Côté Potager r. d'Italie 59 à Vevey Mardi mercredi jeudi: 9h-12h30 et 14h-18h30 Samedi:9h-16h Fermé lundi et dimanche.
6.468843,46.556231,http://www.marchepaysan.ch/site/fr/trouver-un-producteur/par-produits/-14-familles-chauvet-gay/,Familles Chauvet - Gay,Marché ou magasin à la ferme,Familles Chauvet - Gay,La Condemine 5,Colombier,021 869 93 45,-,dominique@condemine.ch,http://,PER IP-Suisse,"Ail,Alcools forts,Asperges vertes,Aubergines,Basilic,Betteraves à salade,Boulangerie,Bricelets,Brocoli,Carottes,Carottes de couleurs,Carottes en bottes,Cassis,Cerfeuil,Cerises,Charcuterie,Choux blancs,Choux chinois,Choux de Bruxelles,Choux-fleurs,Choux nouveaux,Choux,Pak-choï,Choux pointus,Choux raves,Choux romanesco,Choux rouges,Ciboulette,Coloquintes,Concombres,Confitures,Coriandre,Courges,Courges musquée de Provence,Courges rouge d’estampes,Courgesttes,Cresson,Céleri branche,Céleri pomme,Côtes de bette,Dent de lion,Eaux-de-vie,Echalotes,Epinards,Epinards à salade,Estragon,Fenouil,Fleurs,Sapins de Noël,Framboises,Fruits en conserve,Fruits frais,Groseilles,Haricots,Haricots coco,Haricots jaunes,Haricots rames,Herbes aromatiques,Tisanes,Herbes à maggi,Jus de fruits,Jus de pomme pasteurisé,Jus de raisin,Kiwis,Laitues de Morges,Laitues romaines,Laurier,Liqueurs,Légumes frais,Melons,Meringues,Mirabelles,Myrtilles,Jostas,Nashis,Navets,Oeufs,Oeufs de poule,Oignons,Oignons rouges,Pain,Palla rossa,Persil,Persils tubéreux,Poires,Poires Beurré Bosc,Poires conférence,Pommes,Pommes Boskoop,Pommes Braeburn,Pommes Gala,Pommes Golden,Pommes Pinova,Potimarrons,Poulets fermiers,Pourpier,Pâtisserie et confiserie,Radis,Radis blancs,Raiforts,Raisinets,Reines-Claudes,Rhubarbe,Romarin,Roquettes,Salades,Salades batavia,Salades feuilles de chêne,Salades iceberg,Salades lollo,Salades orientales Mizuna,Salades orientales Red Giant,Salades pain de sucre,Salades pommées,Salades scaroles,Salades trévises,Salades Vérone,Salades à tondre,Salami,Saucisses aux choux,Saucisse à rôtir,Saucisson,Sauge,Scorsonères,Sirops,Thym,Tisanes,Tomates,Tomates cerises,Tomates charnues,Tomates coeur de boeuf,Tomates roses de Berne,Topinambour,Tresse,Viande de porc,Viandes fumées,Vin blanc,Vin rosé,Vin rouge,Vins,Volaille",Vendredi: 16h-19h Samedi: 10h-12h.
6.9549871,46.3011855,http://www.marchepaysan.ch/site/fr/trouver-un-producteur/par-produits/-54-domaine-de-la-perrole/,Domaine de la Perrole,Marché ou magasin à la ferme,Pierre-Alain Schweizer,Chemin des Iles,Aigle,079 479 78 56,-,palain1969@bluewin.ch,http://www.pourlaperrole.ch,Bio Suisse Demeter,"Ail,Aneth,Asperges vertes,Aubergines,Avoine,Basilic,Betteraves à salade,Blés,Brocoli,Cardons,Cardons épineux,Carottes,Carottes en bottes,Carottes nouvelles,Cerfeuil,Tubereux,Choux,Choux blancs,Choux chinois,Choux de Bruxelles,Choux-fleurs,Choux frisés,Choux,Pak-choï,Choux pointus,Choux raves,Choux rouges,Choux à choucroute,Ciboulette,Concombres Nostranis,Coriandre,Courges musquée de Provence,Courgesttes,Courgesttes jaunes,Céleri branche,Céleri pomme,Céréales,Côtes de bette,Echalotes,Epautres,Epinards,Farine,Fenouil,Framboises,Fromages à pâte dure,Fruits frais,Fèves,Haricots,Haricots jaunes,Haricots rames,Haricots verts,Herbes aromatiques,Tisanes,Herbes à maggi,Huile de colza,Huiles,Laitues de Morges,Lentilles,Légumes frais,Légumes secs,Maïs sucrés,Melons,Menthe,Miel,Mûres,Navets,Oignons,Oignons bottes,Orge perlé,Panais,Pastèques,Persil,Persils tubéreux,Poireaux,Poireaux nouveaux,Poireaux verts,Polenta,Pommes de terre,Pommes de terre Agria,Pommes de terre charlotte,Pommes de terre Félicia,Pommes de terre nouvelles,Pommes de terre virgule ratte,Potimarrons,Produits de la ruche,Produits laitiers de vache,Radis,Radis blancs,Radis noir,Raiforts,Raisinets,Rampon,Raves,Rhubarbe,Romarin,Salades,Salades batavia,Salades feuilles de chêne,Salades iceberg,Salades pain de sucre,Salades pommées,Salades scaroles,Salades trévises,Salades à tondre,Salanova pommées vertes,Sarasin,Sauge,Thym,Tomates,Tomates cerises,Tomates charnues,Tomates en grappes,Tomates roses de Berne,Tomates San Marzano,Topinambour",Jeudi et vendredi de 16h30 à 18h30.
6.5407835,46.5227358,http://www.marchepaysan.ch/site/fr/trouver-un-producteur/par-produits/-56-famille-challandes/,Famille Challandes,Marché ou magasin à la ferme,Famille Challandes,Casino 14 La Maugettaz,Yvonand,076 416 85 96,-,info@domaine-challandes.ch,http://www.domaine-challandes.ch,PER IP-Suisse,"Alcools forts,Aneth,Aubergines,Basilic,Betteraves à salade,Bois de feu,Boulangerie,Carottes,Carottes de couleurs,Carottes en bottes,Cerfeuil,Choux rouges,Ciboulette,Concombres,Confitures,Coriandre,Cornichons,Courgesttes,Courgesttes jaunes,Courgesttes à l’aigre doux,Céréales,Côtes de bette,Eaux-de-vie,Echalotes,Epinards,Epinards à salade,Estragon,Fenouil,Fruits en conserve,Fruits frais,Haricots,Herbes aromatiques,Tisanes,Herbes à maggi,Huile de noix,Huile de tournesol,Huiles,Jus de fruits,Jus de pomme pasteurisé,Laitues de Morges,Laurier,Légumes en conserve,Légumes frais,Menthe,Miel,Mirabelles,Monarde,Oeufs,Oeufs de poule,Oignons,Orge perlé,Pain,Persil,Persils tubéreux,Pesto,Poireaux,Poires à botzi,Poivrons,Pommes,Pommes Boskoop,Pommes Chantecler,Pommes de terre,Pommes de terre Agria,Pommes de terre Bintje,Pommes de terre charlotte,Pommes Diwa,Pommes Elstar,Pommes Gala,Pommes Golden,Pommes Idared,Pommes Maigold,Pommes Mairac,Pommes Topaz,Produits de la ruche,Pâtissons,Pâtissons jaunes,Radis noir,Raiforts,Raisinée,Romarin,Salades iceberg,Salades scaroles,Salades à tondre,Sauces,Sauge,Thym,Tomates,Verveine",Du 1er septembre au 31 mars Mercredi Jeudi et Vendredi de 13 h 30 à 18 h Samedi: 14h-17h.
6.6867846,46.6028181,http://www.marchepaysan.ch/site/fr/trouver-un-producteur/par-produits/-78-fruits-du-paradis/,Fruits du Paradis,Vente directe en libre-service,Tellenbach André,Ferme Pré-de-Vers Rte de Genève 38,Rolle,021 825 37 05,-,info@fruits-du-paradis.ch,http://www.fruits-du-paradis.ch,PER,"Alcools forts,Asperges vertes,Confitures,Courges,Fleurs,Sapins de Noël,Fleurs à cueillir,Fraises,Fraises mara des bois,Fruits en conserve,Fruits frais,Jus de fruits,Jus de pomme pasteurisé,Liqueurs,Légumes frais,Myrtilles,Oeufs,Oeufs de poule,Pommes,Pommes de terre,Pommes de terre Agria,Pommes de terre charlotte,Pommes de terre nouvelles,Pommes à chair rouge,Hidden,Heart,Potimarrons,Sirops",7 jours sur 7 et 24 heures sur 24 A la ferme. Distributeur automatique A Commugny sur la rte de Divonne (sortie de Commugny direction l'autoroute): Courges Halloween en septembre et octobre.
6.6429454,46.7779226,http://www.marchepaysan.ch/site/fr/trouver-un-producteur/par-produits/-75-la-ferme/,La Ferme,Magasins en ville,La Ferme,Plaine 15,Yverdon-les-Bains,024 425 66 56,-,info@lafermeyverdon.ch,http://www.lafermeyverdon.ch,PER,"Alcools forts,Assortiment viande de boeuf,Assortiment viande de porc,Biscuits,Boulangerie,Bricelets,Caramels,Charcuterie,Confitures,Coulis de fruits,Céréales,Dinde de Noël,Eaux-de-vie,Epautres,Farine,Fruits de saison,Fruits en conserve,Fruits frais,Herbes aromatiques,Tisanes,Huile de colza,Huile de noix,Huile de tournesol,Huiles,Jus de fruits,Jus de pomme pasteurisé,Jus de raisin,Lentilles,Liqueurs,Légumes de saison,Légumes en conserve,Légumes frais,Légumes secs,Meringues,Miel,Mousseux,Moutarde,Oeufs,Pain,Pesto,Poisson,Polenta,Pommes de terre,Poulets,Produits de la ruche,Produits laitiers de brebis,Produits laitiers de chèvre,Produits laitiers de vache,Pâtes,Pâtisserie et confiserie,Raisinée,Sauces,Sauces diverses,Sirops,Sorbets,Tisanes,Tresse,Viande de boeuf,Viande de porc,Viandes diverses,Vinaigre,Vinaigre et condiments,Vin blanc,Vin rosé,Vin rouge,Volaille",Lundi: 14h-18h30 Mardi-vendredi: 8h30-12h15 et 14h-18h30 Samedi: 8h30-17h Possibilité de livraisons à vélo sur Yverdon-les-Bains (3.--).
6.3938804,46.4703242,http://www.marchepaysan.ch/site/fr/trouver-un-producteur/par-produits/-47-panier-gourmand/,Panier Gourmand,Marché ou magasin à la ferme,Pierre Heuberger,Ch. Pierre Louis Matthey 1,Signy,022 362 09 09,-,panier.gourmand@bluewin.ch,http://,PER,"Alcools forts,Boulangerie,Charcuterie,Fromages mi-dur,Fromages à pâte dure,Fromages à pâte molle,Fruits de saison,Fruits frais,Huiles,Jus de fruits,Lentilles,Légumes de saison,Légumes frais,Légumes secs,Meringues,Mousseux,Oeufs,Pain,Produits laitiers de vache,Pâtisserie et confiserie,Saucisses,Tommes,Tresse,Vins,Yogourts",-
6.5149933,46.6596541,http://www.marchepaysan.ch/site/fr/trouver-un-producteur/par-produits/-67-les-miels-brunet/,Les Miel Brunet,Magasins en ville,François Brunet,Grand-rue 10,La Sarraz,078 696 40 92,-,francoisbrunet@mielsbrunet.ch,http://www.mielsbrunet.ch,-,"Alcools forts,Caramels,Gelée royale,Hydromels,Meringues,Pollen,Produits de la ruche,Propolis,Pâtisserie et confiserie",Points de vente et marchés disponibles sur le site Internet.
6.3403278,46.5608359,http://www.marchepaysan.ch/site/fr/trouver-un-producteur/par-produits/-100-jusdepommecom-cidrech/,jusdepomme.com / cidre.ch,Vente directe sur rendez-vous,Jobin Philippe et Laurence,Rte du Dauphin 1,Echichens,021 803 24 41,-,info@jusdepomme.com,http://www.jusdepomme.com,-,"Alcools forts,Cidre,Eaux-de-vie,Fruits frais,Huile de colza,Huiles,Jus de fruits,Jus de pomme pasteurisé,Mousseux,Pommes Boskoop,Pommes Gala,Pommes Golden,Prunes,Spiritueux,Vinaigre,Vinaigre et condiments",Boissons.
6.240606,46.4791959,http://www.marchepaysan.ch/site/fr/trouver-un-producteur/par-produits/-110-famille-renaud/,Famille Renaud,Vente directe en libre-service,Renaud Cédric et Jasmine,Rte de Mollenson 2,Le Vaud,022 366 01 66,-,cjrenaud@bluewin.ch,http://,PER Suisse-Garantie,"Alcools forts,Confitures,Cosmétiques,Cosmétiques divers,Courges,Eaux-de-vie,Fruits en conserve,Huile de colza,Huile de noix,Huiles,Jus de fruits,Jus de pomme pasteurisé,Légumes frais,Miel,Oeufs,Oeufs de poule,Pommes de terre,Produits de la ruche,Raisinée,Savons,Sirops",-
6.599808,46.6622668,http://www.marchepaysan.ch/site/fr/trouver-un-producteur/par-produits/-52-famille-rochat/,Famille Rochat,Vente directe sur rendez-vous,Famille Rochat,Rte de Saint-Denis 10,Chavannes-Le-Veyron,021 861 06 68,-,-,http://,PER,"Alcools forts,Cosmétiques,Fruits en conserve,Huile de noix,Huiles,Liqueurs",Pour tous les produits.
6.5945347,46.5659249,http://www.marchepaysan.ch/site/fr/trouver-un-producteur/par-produits/-85-liqueurs-et-sirops-du-grand-pere-cornut/,Liqueurs et sirops du Grand-Père Cornut,Vente directe sur rendez-vous,Liqueurs et sirops du Grand-Père Cornut,Ponteille 12,Randogne,027 481 93 94,-,yves@grandperecornut.com,http://www.grandperecornut.com,-,"Alcools forts,Eaux-de-vie,Fruits en conserve,Liqueurs",Liqueurs eaux-de-vie sirops sucres.
6.9537326,46.3170722,http://www.marchepaysan.ch/site/fr/trouver-un-producteur/par-produits/-53-mange-maurice-et-loraine/,Mange Maurice et Loraine,Autocueillette,Mange Maurice et Loraine,En Barutel,Gollion,021 861 06 92,079 692 78 45,mmange@bluewin.ch,http://www.lafraise.ch,PER Suisse-Garantie,"Alcools forts,Fraises,Fruits frais,Vins de fruits",-
6.8639494,46.6917509,http://www.marchepaysan.ch/site/fr/trouver-un-producteur/par-produits/-46-pichonnat-olivier/,Pichonnat Olivier,Autocueillette,Pichonnat Olivier,-,Lovatens,021 906 81 25,079 310 67 84,olivier@vin-de-fruits.ch,http://www.vin-de-fruits.ch,PER,"Alcools forts,Framboises,Fruits frais,Myrtilles,Mûres,Vinaigre,Vinaigre et condiments,Vins de fruits",Vinaigre et vins de fruits.
6.479152,46.5292394,http://www.marchepaysan.ch/site/fr/trouver-un-producteur/par-produits/-25-viande-edith-et-christian/,Viande Edith et Christian,Marché ou magasin à la ferme,Viande Edith et Christian,R. du Village 3A,Clarmont,021 800 37 95,-,ceviande@hotmail.ch,http://,PER,"Aneth,Basilic,Beurre,Cerises,Ciboulette,Courges musquée de Provence,Courges rouge d’estampes,Crème,Fleurs,Sapins de Noël,Fromages mi-dur,Fruits frais,Herbes aromatiques,Tisanes,Huile de colza,Huile de tournesol,Huiles,Jus de fruits,Jus de pomme pasteurisé,Légumes frais,Miel,Oeufs,Oeufs de poule,Plantons,Pommes,Pommes Boskoop,Pommes Gala,Pommes Golden,Poulets,Produits de la ruche,Produits laitiers de vache,Pruneaux,Raisin de table,Sérac,Thym,Vin blanc,Vin rosé,Vin rouge,Vins,Volaille",Du lundi au samedi de 8h30 à11h30 et de 13h30 à 18h30.
6.4711642,46.5267473,http://www.marchepaysan.ch/site/fr/trouver-un-producteur/par-produits/-44-guettinger-ernst-et-marlies/,Güttinger Ernst et Marlies,Marché ou magasin à la ferme,Güttinger Ernst et Marlies,Ch. de l'Haut des champs 2,Ferreyres,021 866 03 40,-,e.guttinger@bluewin.ch,http://www.guttingerfleurs.ch,-,"Aneth,Basilic,Cerfeuil,Ciboulette,Coloquintes,Coriandre,Dahlia,Estragon,Fleurs,Sapins de Noël,Fleurs coupées,Fleurs en pot,Fleurs à cueillir,Herbes aromatiques,Tisanes,Herbes à maggi,Laurier,Monarde,Plantons,Romarin,Sapins de Noël,Sauge,Thym,Tournesol,Verveine",A La Saraz Av. de la Gare 1 A Lutry Pl. des Halles 3 A Lausanne Pl. de la Sallaz 6 Service fleuriste fleurop mariages services mortuaires cultures florales.
6.38065,46.693749,http://www.marchepaysan.ch/site/fr/trouver-un-producteur/par-produits/-33-gruenenfelder-erwin/,Grünenfelder Erwin,Vente directe sur rendez-vous,Grünenfelder Erwin,Rte du Plâne 13,Vaulion,021 843 39 73,-,erwineugen@bluewin.ch,http://,Bio Suisse,"Aneth,Basilic,Cerfeuil,Ciboulette,Coriandre,Cosmétiques,Cosmétiques divers,Estragon,Herbes aromatiques,Tisanes,Herbes à maggi,Laurier,Menthe,Monarde,Persil,Romarin,Sauge,Thym,Tisanes,Verveine",Par téléphone.
7.017902,46.204123,http://www.biovaud.ch/,Ferme de l'Aronia,-,Tschabold Jean-Luc,Route de la Chaussée 3,1174 Montherod,079 352 62 93,-,info@aronia-bio.ch,www.aronia-bio.ch,-,"Aronia (fruits secs),Elixir d'aronia,Aronia fruits secs et Elixir,",1er jeudi du mois 16 à 19h sur RDV sauf jour de fête
6.4310497,46.5525369,http://www.marchepaysan.ch/site/fr/trouver-un-producteur/par-produits/-60-baud-roseline/,Baud Roseline,Vente directe en libre-service,Roseline Baud,Rte de Cottens 24,Apples,079 635 95 77,-,rbaud_ch@yahoo.fr,http://www.lesjardinsduflon.ch,PER,"Artichauts,Choux raves,Choux rouges,Céleri branche,Dahlia,Fleurs,Sapins de Noël,Fleurs à cueillir,Légumes frais,Oeufs,Oeufs de poule,Piments,Pommes de terre,Pommes de terre Agria,Pommes de terre charlotte,Pommes de terre Félicia,Pommes de terre nouvelles charlottes,Tournesol",Pommes de terre oeufs.
6.4388387,46.5417036,http://www.marchepaysan.ch/site/fr/trouver-un-producteur/par-produits/-103-lattion-ruppen/,Lattion-Ruppen,Marché ou magasin à la ferme,Lattion-Ruppen,Pré-Géroux 4,Muraz,024 472 75 20,-,pascal.lattion@netplus.ch,http://www.lattion-ruppen.ch,PER,"Asperges blanches,Carottes,Carottes nouvelles,Charcuterie,Demi ou quart de bête Agneau,Demi ou quart de bête boeuf,Légumes frais,Merguez,Oignons,Pommes de terre Agria,Pommes de terre charlotte,Pommes de terre Félicia,Pommes de terre nouvelles,Viande de boeuf,Viande d’Agneau",De mars à mai: saison des asperges lundi au vendredi: 10h à 12h et 13h30 à 18h samedi 10h à 12 h et 13h30 à 17 h.
6.4241928,46.549633,http://www.marchepaysan.ch/site/fr/trouver-un-producteur/par-produits/-73-marche-vaney/,Marché Vaney,Marché ou magasin à la ferme,Marché Vaney,Rue du village 32,Cugy,079 955 24 00,-,marchevaney@gmail.com,http://www.marchevaney.com,Bio Suisse PER,"Assortiment viande de boeuf,Assortiment viande de porc,Beurre,Biscuits,Boeuf broutard,Boulangerie,Bricelets,Caramels,Charcuterie,Chipolata,Confitures,Céréales,Farine,Fleurs,Sapins de Noël,Fleurs en pot,Fromages de brebis à pâte molle,Fromages de chèvre à pâte dure,Fromages de chèvre à pâte mi-dure,Fromages mi-dur,Fromages à pâte dure,Fromages à pâte molle,Fruits de saison,Fruits en conserve,Fruits frais,Gâteaux,Huile de colza,Huile de noix,Huile de tournesol,Huiles,Jambon blanc,Jus de pomme pasteurisé,Lentilles,Légumes de saison,Légumes frais,Légumes secs,Merguez,Meringues,Miel,Moutarde,Oeufs,Oeufs de poule,Pesto,Pommes de terre,Produits de la ruche,Produits laitiers de chèvre,Produits laitiers de vache,Pâtisserie et confiserie,Pâtisseries,Raisinée,Sapins de Noël,Sauces,Saucisses aux choux,Saucisse à rôtir,Saucisson,Sirops,Viande de boeuf,Viande de porc,Viandes fumées,Viandes séchées,Vinaigre,Vinaigre et condiments,Yogourts",Vendredi: 15h-19h Samedi: 8h-12h.
6.8602324,46.5102411,http://www.marchepaysan.ch/site/fr/trouver-un-producteur/par-produits/-64-selffruits-perroud/,Selffruits Perroud,Vente directe en libre-service,Familles Perroud,Rte de Rombuet 148,Attalens,079 664 81 92,-,-,http://www.selffruitsperroud.ch,PER,"Assortiment viande de boeuf,Assortiment viande de porc,Bois de feu,Brocoli,Carottes,Cassis,Charcuterie,Choux-fleurs,Ciboulette,Courges musquée de Provence,Courges rouge d’estampes,Courgesttes,Côtes de bette,Côtes de bette rouge,Demi ou quart de bête boeuf,Demi ou quart de bête porc,Fraises,Framboises,Fruits frais,Groseilles,Haricots,Jus de pomme pasteurisé,Laitues de Morges,Légumes de saison,Légumes frais,Miel,Mûres,Oignons,Poireaux,Potimarrons,Pruneaux,Prunes,Pâtissons,Raisinets,Rampon,Rhubarbe,Salades batavia,Salades feuilles de chêne,Salades lollo,Salades pommées,Salami,Salanova pommées vertes,Tomates,Tomates cerises,Tomates charnues,Tomates coeur de boeuf,Tomates roses de Berne,Viande de boeuf,Viande de porc",Consultez notre site internet ou écoutez notre bulletin de récolte au 079 660 33 65.
6.4750356,46.6139223,http://www.marchepaysan.ch/site/fr/trouver-un-producteur/par-produits/-95-boucherie-chanson/,Boucherie Chanson,Vente directe en libre-service,Boucherie Chanson,Rte d'Ittens 26,La Chaux,079/604 26 16,-,info@boucheriechanson.com,http://www.boucheriechanson.com,PER,"Assortiment viande de boeuf,Assortiment viande de porc,Bricelets,Cailles,Canard,Carottes,Cervelas,Charcuterie,Chipolata,Confitures,Céréales,Demi ou quart de bête boeuf,Demi ou quart de bête porc,Dinde,Farine,Huile de colza,Huile de noix,Huiles,Jambon blanc,Jus de fruits,Jus de pomme pasteurisé,Lapins,Légumes en conserve,Légumes frais,Merguez,Meringues,Miel,Moutarde,Oeufs,Oeufs de caille,Oeufs de poule,Pommes de terre,Pommes de terre Bintje,Pommes de terre nouvelles,Poulets,Produits de la ruche,Pâtes,Pâtisserie et confiserie,Raisinée,Salami,Saucisses,Saucisses aux choux,Saucisse à rôtir,Saucisson,Schübling,Terrines,Veau,Viande de boeuf,Viande de porc,Viande d’Agneau,Viandes diverses,Viandes fumées,Viandes séchées,Vinaigre et condiments,Volaille,Wienerli",-
6.5067202,46.6479491,http://www.marchepaysan.ch/site/fr/trouver-un-producteur/par-produits/-108-ferme-iseli/,Ferme Iseli,-,de Raad-Iseli Christina,Rte de Dizy 1,La Sarraz,021 866 66 01,079 762 87 11,de_raad_iseli@bluewin.ch,http://www.ferme-iseli.ch,Bio Suisse,"Assortiment viande de boeuf,Boeuf broutard,Boulangerie,Céréales,Huile de lin,Huiles,Lentilles,Lin,Légumes secs,Meringues,Naturabeef,Oeufs,Oeufs de poule poules à bouillir,Poulets,Pâtes,Pâtisserie et confiserie,Tresse,Viande de boeuf,Volaille",A la Ferme ouvert tous les jours 24h/24. Viande de boeuf poules et poulets sur rendez-vous.
7.5120408,46.3114983,http://www.marchepaysan.ch/site/fr/trouver-un-producteur/par-produits/-112-les-saveurs-epicuriennes/,Les Saveurs Epicuriennes,Vente directe en libre-service,Rufer Pascal et Rosalba,Ruelle de l'Eglise 4,Colombier,021 869 75 40,079 775 89 49,singarella@hotmail.com,http://www.les-saveurs-epicuriennes.ch,PER IP-Suisse Suisse-Garantie,"Assortiment viande de boeuf,Boeuf broutard,Demi ou quart de bête boeuf,Jus de fruits,Jus de pomme pasteurisé,Miel,Oeufs,Oeufs de poule,Produits de la ruche,Raisinée,Viande de boeuf",Tous les produits sauf la viande de boeuf sur commande. Ouvert 7j/7 - 24h /24.
6.632544,46.521994,http://www.marchepaysan.ch/site/fr/trouver-un-producteur/par-produits/-81-la-ferme-en-croix/,La Ferme En Croix,Marché ou magasin à la ferme,Rudolf et Caroline Steiner,Rue de Croix 11,Vullierens,021 869 94 86,076 306 19 34,info@lafermeencroix.ch,http://www.lafermeencroix.ch,PER,"Assortiment viande de porc,Charcuterie,Chipolata,Côtelettes de porc,Demi ou quart de bête porc,Emincés de porc,Epaules de porc,Filets de porc,Filets mignons,Fricassée de porc,Huile de colza,Huiles,Jambons,Lards,Oeufs,Oeufs de poule,Poulets,Ragoûts de porc,Rôtis de porc,Salami,Saucisses aux choux,Saucisse à rôtir,Tranches de cou,Travers de porc,Viande de porc,Viandes fumées,Viandes séchées,Volaille",-
6.0077763,46.1446225,http://www.marchepaysan.ch/site/fr/trouver-un-producteur/par-produits/-72-jardins-de-cocagne/,Jardins de Cocagne,Marché en ville,Jardins de Cocagne,-,Athenaz/Seregnin,022 756 34 45,-,cocagne@cocagne.ch,http://www.cocagne.ch,-,"Aubergines,Betteraves à salade,Brocoli,Carottes,Carottes de couleurs,Carottes en bottes,Carottes nouvelles,Cassis,Cerfeuil,Tubereux,Choux blancs,Choux à choucroute,Cornichons,Cosmétiques,Céleri branche,Céleri pomme,Fruits de saison,Fruits frais,Groseilles,Légumes frais,Pommes",Plainpalais (GE) Mardi et vendredi matin Rive r. du Chesal (GE) Samedi matin Sur notre stand la production des Jardins de Cocagne est complétée par d'autres produits biologiques pain miel confitures huile vinaigre fruits et autres légumes.
6.4440075,46.5284787,http://www.marchepaysan.ch/site/fr/trouver-un-producteur/par-produits/-13-la-ferme-aux-saveurs-d-autrefois/,La Ferme aux saveurs d'autrefois,Vente directe en libre-service,"Maryline, Laurence et Olivier Cretegny",Rue de la Poste 5,Bussy-Chardonney,021 800 40 84,-,etable@ferme-aux-cretegny.ch,http://www.ferme-aux-cretegny.ch,PER,"Beurre,Biscuits,Boulangerie,Bricelets,Caramels,Cervelas,Charcuterie,Chipolata,Crème,Céréales,Côtelettes de porc,Escalopes,Fromages de chèvre à pâte molle,Fromages à pâte dure,Fromages à pâte molle,Fruits de saison,Fruits frais,Gâteaux,Huile de colza,Huile de noix,Huile de tournesol,Huiles,Jambon blanc,Jambons,Jus de pomme pasteurisé,Lait de vache,Légumes de saison,Légumes frais,Merguez,Meringues,Miel,Moutarde,Oeufs,Oeufs de poule,Pain,Produits laitiers de vache,Pâtes,Pâtisserie et confiserie,Pâtisseries,Raisinée,Salami,Saucisses,Saucisses aux choux,Saucisse à rôtir,Schübling,Sérac,Terrines,Tommes,Tranches de cou,Tresse,Viande de porc,Viandes fumées,Vinaigre,Vinaigre et condiments,Vin blanc,Vin rouge,Vins,Volaille,Wienerli,Yogourts",7j/7 de 8 h à 21 h.
6.7304714,46.966716,http://www.marchepaysan.ch/site/fr/trouver-un-producteur/par-produits/-8-ferme-des-tourbieres/,Ferme des Tourbières,Vente directe en libre-service,Famille Robert,Le Joratel 2,Brot-Plamboz,032 937 14 15,-,info@fermedestourbieres.ch,http://www.fermedestourbieres.ch,PER IP-Suisse,"Beurre,Biscuits,Boulangerie,Bricelets,Caramels,Charcuterie,Confitures,Courgesttes à l’aigre doux,Céréales,Farine,Fromages à pâte dure,Fruits en conserve,Fruits frais,Gâteaux,Huile de colza,Huile de noix,Huile de tournesol,Huiles,Jambon blanc,Lentilles,Légumes en conserve,Légumes frais,Légumes secs,Miel,Moutarde,Noix,Oeufs,Oeufs de poule,Oignons,Pain,Pommes de terre poules à bouillir,Produits de bufflonnes,Produits de la ruche,Produits laitiers de vache,Pâtes,Pâtisserie et confiserie,Saucisson,Tommes,Tresse,Vinaigre,Vinaigre et condiments,Volaille,Yogourts",7 jours sur 7 de 8h à 20h.
6.336086,46.640191,http://www.marchepaysan.ch/site/fr/trouver-un-producteur/par-produits/-21-buvette-des-croisettes/,Buvette des Croisettes,Marché ou magasin à la ferme,Buvette des Croisettes,Alpage en dessus du village sur le col du Molendruz,L‘Abbaye,021 841 16 68,-,info@lescroisettes.ch,http://www.lescroisettes.ch,Bio Suisse,"Beurre,Biscuits,Bricelets,Charcuterie,Confitures,Coulis de fruits,Crème,Demi ou quart de bête boeuf,Fromages de brebis mi-dur,Fromages de brebis à pâte dure,Fromages de brebis à pâte molle,Fromages de chèvre à pâte dure,Fromages de chèvre à pâte mi-dure,Fromages de chèvre à pâte molle,Fromages mi-dur,Fromages à pâte dure,Fromages à pâte molle,Fruits confits,Fruits en conserve,Gâteaux,Highland,Huile de colza,Huile de noix,Huiles,Huiles autres,Jus de fruits,Jus de pomme pasteurisé,Lait de chèvre,Légumes en conserve,Merguez,Miel,Moutarde,Produits de la ruche,Produits laitiers de brebis,Produits laitiers de chèvre,Produits laitiers de vache,Pâtisserie et confiserie,Serac de brebis,Serac de chèvre,Sirops,Sérac,Terrines,Tommes,Tommes de brebis,Tommes de chèvre,Viande de boeuf,Viandes fumées,Vinaigre,Vinaigre et condiments,Vin blanc,Vin rouge",A la buvette au même horaires du mercredi au dimanche de 11h-23h30 de fin mai à mi-octobre.
6.4641471,46.5105522,http://www.marchepaysan.ch/site/fr/trouver-un-producteur/par-produits/-43-petit-anne-francoise/,Petit Anne-Françoise,Autocueillette,Petit Anne-Françoise,Le Sécheron 5,Lully,021 801 12 05,-,annepetit@bluewin.ch,http://,PER,"Biscuits,Boulangerie,Cerises,Cerises Bigarreau,Cerises noires,Fruits frais,Gâteaux,Jus de fruits,Jus de pomme pasteurisé,Noix,Pain,Pommes Golden,Pâtisserie et confiserie,Pâtisseries,Reines-Claudes,Tresse,Vin blanc,Vin rouge,Vins",Par téléphone.
6.3806711,46.69358,http://www.marchepaysan.ch/site/fr/trouver-un-producteur/par-produits/-55-fiechter-veronique/,Fiechter Véronique,Vente directe en libre-service,Fiechter Véronique,Au village 13b,Clarmont,021 800 50 91,-,fiechterjlv@bluewin.ch,http://,PER,"Biscuits,Bricelets,Caramels,Gâteaux,Huile de noix,Huiles,Meringues,Pâtisserie et confiserie,Pâtisseries",Bricelets meringues caramels et petits biscuits.
6.6716161,46.7682686,http://www.marchepaysan.ch/site/fr/trouver-un-producteur/par-produits/-113-ferme-des-terres-rouges/,Ferme des Terres Rouges,Vente directe en libre-service,Caroline et Fabien Thubert-Richardet,Terres Rouges 1,Pomy,-,078 678 40 35,caroline@ferme-des-terres-rouges.ch,http://www.ferme-des-terres-rouges.ch,Bio Suisse,"Blés,Boulangerie,Céréales,Epautres,Farine,Huile de colza,Huiles,Pain,Pâtes,Tresse",-
6.5100561,46.5558644,http://www.marchepaysan.ch/site/fr/trouver-un-producteur/par-produits/-45-barilier-anne-marie-et-jean-philippe/,Barilier Anne-Marie et Jean-Philippe,Magasins en ville,Barilier Anne-Marie et Jean-Philippe,Ch. des Planches 1,Romanel-sur-Morges,021 869 96 09,079 212 82 06,jph.barilier@gmail.com,http://,Bio Suisse Demeter,"Blés,Céréales,Epautres,Farine,Huile de colza,Huile de lin,Huile de tournesol,Huiles,Sarasin,Vin blanc,Vin rouge,Vins",Biokalt à Morges Planète bleue à Martigny Epicerie à Lonay Le Tournesol à Rolle Luc Bourgeois à Vullierens Etienne Reymond à Aclens Ferme des sapins à Colombier.
6.6733179,46.6697931,http://www.biovaud.ch/http://www.biovaud.ch/,Méda Eric,-,Méda Eric,rte d'Echallens 33,1044 Fey,079 342 62 07,-,hortica@bluewin.ch,-,-,Boeuf,Sur demande: 079 342 62 07
6.296839,46.498119,http://www.biovaud.ch/,Bauquis Blaise,-,Bauquis Blaise,Les Troncs 1,1187 Saint-Oyens,021 828 34 25,-,b.bauquis@bluewin.ch,-,-,Boeuf,Sur commande: 021 828 34 25
6.9370307,46.9941109,http://www.marchepaysan.ch/site/fr/trouver-un-producteur/par-produits/-29-famille-von-niederhausern/,Famille Von Niederhausern,Vente directe sur rendez-vous,Ferme des coquelicots,Ch. de la Creuse,Marchissy,022 368 13 20,079 701 10 23,g.von@bluewin.ch,http://,PER,"Boeuf broutard,Bois de feu,Canard,Dinde,Dinde de Noël,Lapins,Oeufs,Oeufs de poule,Poulets fermiers,Veau,Viandes diverses,Volaille",-
6.6716161,46.7682686,http://www.biovaud.ch/,Ferme des Bains,-,Ballay Daniel,Route des Bains 22,1892 Lavey-les-Bains,078 666 07 22,-,info@lafermedesbains.ch,-,-,Boeuf,Sur demande: info@lafermedesbains.ch ou par téléphone au
7.0069722,46.3375668,http://www.biovaud.ch/,Knecht Eva,-,Knecht Eva,Les Bans,1854 Leysin,079 531 28 57,-,johndeere90@hotmail.fr,-,-,Boeuf,Sur demande: 079 531 28 57
6.7603972,46.6367023,http://www.biovaud.ch/,Jayet Stéphane,-,Jayet Stéphane,ch. des Chênes 6,1513 Hermenches,079 397 77 20,-,jayet.steph@gmail.com,-,-,Boeuf,Sur demande: 079 397 77 20
6.9301535,46.7464442,http://www.biovaud.ch/,Guye Pierre-Alain,-,Guye Pierre-Alain,Route du village 7,1453 Mauborget,024 436 18 04,-,pamif@netcourrier.com,-,-,Boeuf,Sur demande: 078 626 89 56
6.9342808,46.4332489,http://www.biovaud.ch/http://www.biovaud.ch/,Huber David,-,Huber David,Route de Caux 105,1824 Caux,079 218 14 47,-,huber-david@bluewin.ch,-,-,"Boeuf,Agneau",Sur demande: 079 218 14 47
6.7356655,46.7790809,http://www.biovaud.ch/,Berney Louis-François,-,Berney Louis-François,Chez Besson 4,1346 Les Bioux,021 845 46 02,-,berneylf@hotmail.com,www.highlandberney.ch,-,"Boeuf,Agneau,",distributeur automatique 24h/24 ou vente en ligne
6.2968389,46.4980969,http://www.biovaud.ch/,Alpes en Fleurs,-,Henchoz Fanny,chemin de Mimont 2,1862 La Comballaz,079 653 28 29,-,fannyhenchoz@hotmail.ch,www.yackabons.ch,-,"Boeuf,Agneau,Plantes aromatiques,Tisanes,Plantes médicinales",sur demande: 079 653 28 29 et dès decembre VE 14h-18h.
6.377495,46.554406,http://www.biovaud.ch/,Marché Vaney,-,Vaney Christian,rue du village 32,1053 Cugy,021 731 26 49,079 225 98 61,fermevaney@gmail.com,www.marchevaney.com,-,"Boeuf,Porc,Colza,Tournesol,Blés moderne,Pain,Confiserie",Horaires: vendredi 15-19 et samedi 8-12h marchevaney@gmail.com
6.4300133,46.5528695,http://www.biovaud.ch/,Duc Eric,-,Duc Eric,Ruelle du Grenier 2,1512 Chavannes sur Moudon,079 586 36 65,-,edc@bluewin.ch,-,-,"Boeuf,Poulet,Pâtes complètes aux blés anciens,Céréales anciennes,Miel",Sur demande: 079 586 36 65
6.2117609,46.3921495,http://www.marchepaysan.ch/site/fr/trouver-un-producteur/par-produits/-101-miazza-raphael-et-estelle/,Miazza Raphaël et Estelle,Vente directe en libre-service,Miazza Raphaël et Estelle,Place de l'Eglise 1,Goumoëns-la-Ville,021/881 12 64,-,raphael.miazza@gmail.com,http://,PER IP-Suisse,"Bois de feu,Fruits frais,Huile de colza,Huiles,Jus de pomme pasteurisé,Légumes frais,Noix,Oeufs,Pommes de terre",-
6.5815701,46.6888203,https://www.a-la-ferme.ch/chercher-des-offres/details/farm/ferme-deriaz/,Ferme Deriaz,-,Jaques Deriaz,Rolle,1180 Rolle,-,-,-,-,Bio Suisse,"Boissons,Autres vins",-
6.757725,46.5163101,https://www.a-la-ferme.ch/chercher-des-offres/details/farm/cave-des-cimes/,Cave des Cimes,Venir chercher,Pierre-Alain Indermühle,Ch. de la Patissière,1880 Bex,024 463 14 86,-,cavedescimes@lebongout.ch,-,-,"Boissons,Autres vins",-
6.2631045,46.4369134,https://www.a-la-ferme.ch/chercher-des-offres/details/farm/ferme-du-chateau-blanc/,Ferme du Château-Blanc,Magasin à la ferme,Jean et Karin Weber,Château-Blanc 2,1276 Gingins,022 369 13 28,-,jkweber777@bluemail.ch,-,NaturaBeef,"Boissons,Eau-de-vie de fruits,Cidre,Autres vins,Autres boissons,Carne,Viande de boeuf,Volaille,Viande de porc,Poisson,Dinde,Produits à base de lait,Autres produits à base de lait de vache,Autres produits à base de lait de brebis,Autres produits à base de lait de chèvre,Légumes,Salades,Herbes,Champignons,Autres produits végétales,Autres herbes,épices et thés,Fruits,Baies,Noix,Autres produits à base de fruits,Spécialités,Sauces,Autres huiles,Vinaigre ou sauces,Pain,Produits céréaliers,Pates,Autres produits céréaliers et pâtes,Pain,Oeufs,Autres oeufs",-
6.36365,46.470906,https://www.a-la-ferme.ch/chercher-des-offres/details/farm/les-peres-fruitart/,Les Pères Fruit'art,-,Alain Bersier et David Huggler,Rue de la Gare 1,1166 Perroy,079 778 81 75,079 489 23 27,les.peres@fruitart.ch,-,-,"Boissons,Liqueurs,Cidre,Autres vins,Sirops,Spécialités,Autres huiles,Vinaigre ou sauces",-
6.5859857,46.8146994,https://www.a-la-ferme.ch/chercher-des-offres/details/farm/a-fleurs-didees/,A fleurs d'idées,Magasin à la ferme,Mary-Claude et Jean-Pierre Wenger,Longeville,1430 Orges,024 445 56 26,-,-,-,-,"Boissons,Liqueurs,Sirops,Spécialités,Huiles de cuisine,Confitures",-
6.5245821,46.6530869,https://www.a-la-ferme.ch/chercher-des-offres/details/farm/domaine-de-chateau-declepens/,Domaine de Château d'Eclépens,Venir chercher,François de Coulon,Château d'En Haut 3,1312 Eclépens,021 866 18 25,-,info@chateau-eclepens.ch,-,"IP-Suisse, Vinatura","Boissons,Vin rouge",-
6.3737429,46.4721506,https://www.a-la-ferme.ch/chercher-des-offres/details/farm/cave-dupuis/,Cave Dupuis,Envoi postal,Christian Dupuis,Chemin de St-Pierre 3,1173 Féchy,-,078 712 78 52,info@cavedupuis.com,-,IP-Suisse,"Boissons,Vin rouge,Vin blanc,Vins de dessert,Rosé",-
6.4852155,46.5756662,http://www.marchepaysan.ch/site/fr/trouver-un-producteur/par-produits/-91-aux-lauriers/,Aux Lauriers,Marché ou magasin à la ferme,Muller Pierre et Anne-France,Rue de Gland 11,Vullierens,021 869 98 08,-,muller.p.vullie@bluewin.ch,http://www.auxlauriers.ch,PER,"Boulangerie,Bricelets,Confitures,Fromages à pâte dure,Fruits en conserve,Fruits frais,Gâteaux,Herbes aromatiques,Tisanes,Huile de colza,Huile de noix,Huile de tournesol,Huiles,Jus de fruits,Jus de pomme pasteurisé,Miel,Pain,Pommes,Produits de la ruche,Produits laitiers de vache,Pâtisserie et confiserie,Tisanes,Tresse,Viande de boeuf,Vinaigre,Vinaigre et condiments",Le jeudi de 16 h à 18 h 30 vendredi de 9 h à 18 h 30 samedi de 9 h à 13 h.
6.4456542,46.6824367,http://www.marchepaysan.ch/site/fr/trouver-un-producteur/par-produits/-49-curtet-yann-et-valerie/,Le Cosson,Magasins en ville,Curtet Yann et Valérie,Le Cosson 5,Juriens,024 453 10 81,-,yann-curtet@bluewin.ch,http://,PER,"Bricelets,Caramels,Charcuterie,Fruits en conserve,Pâtisserie et confiserie,Saucisson,Sirops,Viandes séchées",Produits disponibles à la buvette des Croisettes et au Landi d'Orbe.
6.757725,46.5163101,http://www.marchepaysan.ch/site/fr/trouver-un-producteur/par-produits/-7-caprilait/,Caprilait,Marché ou magasin à la ferme,Pierre Schlunegger,Ch. de la Tour de Gourze 9,Forel-Lavaux,021 946 28 88,-,caprilait@bluewin.ch,http://,PER,"Cabris,Charcuterie,Demi ou quart de bête Agneau,Fromages de brebis mi-dur,Fromages de chèvre à pâte dure,Fromages de chèvre à pâte molle,Lait de brebis,Lait de chèvre,Merguez,Produits laitiers de brebis,Produits laitiers de chèvre,Salami,Tommes de chèvre,Viande d’Agneau,Viandes diverses,Viandes séchées",Lundi au samedi 8h-12h et 13h30-18h Dimanche: 16h-18h.
6.7724998,46.5185875,http://www.marchepaysan.ch/site/fr/trouver-un-producteur/par-produits/-104-ferme-de-praz-romond/,Ferme de Praz-Romond,Vente directe en libre-service,Sylvain Chevalley,Rte de Forel 3,Puidoux,079 579 40 64,-,s.chevalley@prazromond.ch,http://www.prazromond.ch,-,"Cabris,Confitures,Crème,Glacées,Demi ou quart de bête Agneau,Fromages de brebis mi-dur,Fromages de chèvre à pâte mi-dure,Fromages à pâte dure,Fruits en conserve,Oeufs,Oeufs de poule,Pintades,Poulets,Produits laitiers de brebis,Produits laitiers de chèvre,Produits laitiers de vache,Raisinée,Sirops,Tommes de brebis,Tommes de chèvre,Viande d’Agneau,Viandes diverses,Volaille,Yogourts de brebis",24h/24.
6.6041381,46.6577197,http://www.marchepaysan.ch/site/fr/trouver-un-producteur/par-produits/-22-le-promeneur/,Le promeneur,Magasins en ville,Sylvia et Jean-Luc Decollogny,Rue de l'Eglise 7,Reverolle,021 800 34 53,-,info@lepromeneur.ch,http://www.lepromeneur.ch,PER,"Cailles,Coqs,Cuisses de volailles,Dinde,Dinde de Noël,Emincés de volailles,Escalopes,Fricassées de volaille,Oeufs,Oeufs de poule,Oies,Pintades poules à bouillir,Poulets fermiers,Viandes fumées,Volaille",Boucherie de Sévery Boucherie de la Venoge à Cossonay.
6.6325333,46.5219944,http://www.marchepaysan.ch/site/fr/trouver-un-producteur/par-produits/-66-le-gibier-du-domaine-sarl/,Le Gibier du Domaine Sàrl,Vente directe en libre-service,Le Gibier du Domaine Sàrl,Rte de St-Cierges 6,Thierrens,079 467 58 34,-,legibierdudomaine@hotmail.com,http://www.gibier.ch,Bio Suisse,"Canard,Cerf,Cerises,Charcuterie,Chutneys,Coings,Confitures,Daims,Framboises,Fromages à pâte dure,Fruits en conserve,Fruits frais,Jus de fruits,Jus de pomme pasteurisé,Lapins,Légumes en conserve,Miel,Mirabelles,Myrtilles,Mûres,Poires,Pommes,Potimarrons,Produits de la ruche,Produits laitiers de vache,Raisinée,Saucisses,Terrines,Viandes diverses,Viandes séchées",Tous les produits (sauf viandes fraîches sur commande). Shop site internet: www.gibier.ch.
6.4749673,46.5563277,http://www.marchepaysan.ch/site/fr/trouver-un-producteur/par-produits/-68-les-vergers-d-aigle-et-d-yvorne/,Les vergers d'Aigle et d'Yvorne,Marché ou magasin à la ferme,Cheseaux Bertrand et Martine,Rte d'Evian 32,Aigle,024 466 35 83,-,info@vergers.ch,http://www.vergers.ch,PER,"Caramels,Cassis,Cerises,Coings,Framboises,Fruits frais,Griottes,Huile de colza,Huile de noix,Huiles,Huiles autres,Jus de fruits,Jus de pomme pasteurisé,Jus multifruits,Lentilles,Légumes de saison,Légumes frais,Légumes secs,Meringues,Miel,Moutarde,Myrtilles,Jostas,Noix,Oeufs,Oeufs de poule,Poires,Pommes,Produits de la ruche,Pruneaux,Pâtisserie et confiserie,Raisinets,Raisinée,Vinaigre,Vinaigre et condiments",De début septembre à fin mai Du mardi au vendredi: 10h-12h et 13h30-18h Samedi de 8h30 à 12h et de 13h30 à 16h.
6.9252161,46.7680393,http://www.marchepaysan.ch/site/fr/trouver-un-producteur/par-produits/-18-cornamusaz-alain-et-annie/,Cornamusaz Alain et Annie,Marché ou magasin à la ferme,Cornamusaz Alain et Annie,Rte de Payerne 13,Trey,026 668 29 43,-,alain.cornamusaz@bluewin.ch,http://,PER,"Caramels,Charcuterie,Fruits en conserve,Fruits frais,Huiles,Jus de fruits,Légumes en conserve,Légumes frais,Miel,Produits laitiers de vache,Viandes diverses,Vinaigre et condiments,Volaille",-
6.6054295,46.8379449,https://www.a-la-ferme.ch/chercher-des-offres/details/farm/knecht-brigitta-et-max/,Knecht Brigitta et Max,-,Brigitta et Max Knecht,-,1854 Leysin,-,-,-,-,Bio Suisse,"Carne,Autres viandes,Produits carnés",-
6.5046953,46.6481548,https://www.a-la-ferme.ch/chercher-des-offres/details/farm/ferme-de-valmont/,Ferme de Valmont,-,Bernard Tellenbach,Ferme Valmont,1823 Gilon,079 232 20 73,-,-,-,Bio Suisse,"Carne,Charcuterie,Autres viandes,Produits carnés",-
6.5881715,46.5583477,https://www.a-la-ferme.ch/chercher-des-offres/details/farm/ferme-de-dufresne/,Ferme de Dufresne,-,Danielle Dufresne,Les Combes,1867 Ollon,024 495 83 14,-,-,-,-,"Carne,Charcuterie,Autres viandes,Produits carnés",-
6.5653548,46.7685475,https://www.a-la-ferme.ch/chercher-des-offres/details/farm/christin-rachel-rochat-jean-marc/,Christin Rachel & Rochat Jean-Marc,Magasin à la ferme,Christin Rachel & Rochat Jean-Marc,Rte de Montagny11,1438 Mathod,076 307 71 95,-,christinrachel@hotmail.com,-,-,"Carne,Charcuterie,Produits à base de lait,Produits à base de fromage",-
6.6883842,46.7093315,https://www.a-la-ferme.ch/chercher-des-offres/details/farm/magnin-guy-michel-et-david/,Magnin Guy-Michel et David,-,Guy-Michel et David Magnin,rue des Hirondelles 14,1374 Corcelles-sur-Chavornay,024 441 17 84,-,-,-,-,"Carne,Charcuterie,Viande de boeuf,Légumes,Salades,Herbes,Champignons,Courges,Autres légumes ou salades,Autres produits végétales,Fruits,Baies,Noix,Abricots,Autres fruits,Fraises,Framboises,Pain,Produits céréaliers,Pates,Autres produits céréaliers et pâtes,Boissons,Sirops,Spécialités,Confitures",-
6.7567152,46.7473825,https://www.a-la-ferme.ch/chercher-des-offres/details/farm/berney/,Berney,-,Kim Berney,Chez Besson 8,1346 Les Bioux,078 640 69 37,078 640 69 37,-,-,Bio Suisse,"Carne,Viande de boeuf",-
6.4963123,46.8107468,https://www.a-la-ferme.ch/chercher-des-offres/details/farm/horisberger-david/,Horisberger-David,Envoi postal,André Horisberger-David,Ferme David,1148 Chavannes-le Veyron,021 861 43 09,079 232 62 54,ahoris@bluewin.ch,-,Bio Suisse,"Carne,Viande de boeuf,Viande d'Agneau",-
7.0966891,47.4830921,http://www.marchepaysan.ch/site/fr/trouver-un-producteur/par-produits/-107-produits-de-la-ferme/,Produits de la ferme,Marché ou magasin à la ferme,Gilles Pape,Bas du Village 40,Lugnez,-,078 761 62 57,tafon@bluewin.ch,http://www.produits-de-la-ferme.ch,PER,"Carottes de couleurs,Cassis,Coloquintes,Courges,Courges musquée de Provence,Courgesttes,Courgesttes jaunes,Céréales,Farine,Fleurs,Sapins de Noël,Fruits en conserve,Fruits frais,Huile de colza,Huile de lin,Huile de noix,Huile de tournesol,Huiles,Huiles autres,Jus de fruits,Jus de pomme pasteurisé,Ketchup,Légumes en conserve,Légumes frais,Miel,Mûres,Oeufs,Oeufs de poule,Oignons,Pommes de terre,Potimarrons,Produits de la ruche,Pâtes,Sauces,Sirops",Mardi et vendredi de 16 h à 19 h mercredi de 9 h à 11 h.
6.4575606,46.6071335,http://www.marchepaysan.ch/site/fr/trouver-un-producteur/par-produits/-102-famille-vulliamy/,Famille Vulliamy,Vente directe en libre-service,Laurent Vulliamy,Rte de Goumoëns-le-Jux 3,Goumoëns-la-Ville,079 685 01 10,-,laurent.vulliamy@bluewin.ch,http://www.lafermeacanack.ch,PER IP-Suisse,"Céréales,Fraises,Framboises,Fruits frais,Lentilles,Légumes frais,Légumes secs,Oeufs,Polenta",Lentilles vertes polenta.
7.0292661,46.882309,http://www.biovaud.ch/,Cerfs de Rougement,-,Blum Frédéric,Chemin du Moulin Dessous 37,1659 Flendruz,026 925 00 84,-,fredblum@bluewin.ch,-,-,Cerf,Sur demande: 079 617 52 53 info@cerfs-rougemont.ch
6.2576383,46.4908245,http://www.marchepaysan.ch/site/fr/trouver-un-producteur/par-produits/-97-bovy-etienne/,Bovy Etienne,Vente directe sur rendez-vous,Bovy Etienne,Ferme Pré Martin 6,Longirod,022 368 20 34,-,agneaux@fermemartin.ch,http://www.fermepremartin.ch,PER IP-Suisse,"Charcuterie,Côtelettes d’Agneau,Epaules d’Agneau,Fricassée d’Agneau,Fruits en conserve,Gigots d’Agneau,Huile de colza,Huiles,Jus de fruits,Jus de pomme pasteurisé,Merguez,Ragoûts d’Agneau,Viande d’Agneau",Viandes d'agneaux saucissons secs au poivre à la prune ou à l'ail terrines au poivre ou à l'ail huile de colza sirops jus de pomme et laine.
6.498226,46.5334924,http://www.marchepaysan.ch/site/fr/trouver-un-producteur/par-produits/-2-la-bergerie-du-petit-boutavent/,La Bergerie du Petit-Boutavent,Marché en ville,La Bergerie du Petit-Boutavent,Rte de la Busine 4,Vaulion,021 843 30 45,-,-,http://,Bio Suisse,"Charcuterie,Demi ou quart de bête Agneau,Demi ou quart de bête porc,Fromages de brebis mi-dur,Fromages de brebis à pâte dure,Produits laitiers de brebis,Salami,Serac de brebis,Tommes de brebis,Viande de porc,Viande d’Agneau,Yogourts de brebis",Morges: samedi: 8h-13h Nyon: samedi: 8h-13h Le Sentier: Jeudi: 8h-12h Romanel chez Pache: à la quinzaine Apples chez Meldem: 2ème samedi du mois.
6.6696009,46.8643751,http://www.biovaud.ch/,Chèvrerie de Leysin,-,Stefan Perreten,Mansonnette 1,1854 Leysin,079 776 91 45,-,info@chevrerie-leysin.ch,-,-,"Chèvres,Chèvres,Oeufs de poules,Cabris,Confitures,Miel",MA et VE 14h-18h SA 8h-11h
7.0512984,46.4630218,http://www.biovaud.ch/,Tchivra Sàrl,-,Tchivra Sàrl,-,1658 Rossinière,026 924 38 23,-,ch.jaggi@romandie.com,www.jardindesmonts.ch/,-,"Chèvres,Sirops,Tisanes,Plantes aromatiques,Médicinales,Cosmétiques,",Marché en ligne: http://www.jardindesmonts.ch/fr/marche-en-ligne
6.3872982,46.677546,http://www.marchepaysan.ch/site/fr/trouver-un-producteur/par-produits/-61-la-dauphine/,La Dauphine,Vente directe en libre-service,Florence Dauphin,Les Molliettes 5,Berolle,021 809 54 03,-,floflodelamer@yahoo.fr,http://www.ladauphine.ch,PER,"Chutneys,Confitures,Céréales,Fruits en conserve,Ketchup,Oeufs,Oeufs de poule,Pesto,Sauces",La Ferme à Yverdon-les-Bains Terre Vaudoise à Lausanne.
6.1741441,46.4144658,http://www.marchepaysan.ch/site/fr/trouver-un-producteur/par-produits/-109-atelier-du-bonheur/,Atelier du Bonheur,Magasins en ville,Weber Karin,Château-Blanc 2,Gingins,-,079 464 21 51,karinweber777@bluewin.ch,http://,PER,"Chutneys,Confitures,Courgesttes à l’aigre doux,Fruits en conserve,Huile de noix,Huiles,Légumes en conserve,Sauces,Sauces diverses,Sirops,Vinaigre,Vinaigre et condiments",Au coeur des Saveurs - Boulangerie à Gland et à Nyon Boulangerie Josseron à Bassins Ferme en Croix à Vullierens Famille Bourgeois à Vullierens.
6.931872,46.2886669,http://www.marchepaysan.ch/site/fr/trouver-un-producteur/par-produits/-51-la-grange-aux-courges/,La Grange aux courges,Vente directe en libre-service,Famille Claude et Carine Jaquier,Rte d'Eclagnens 7,Goumoens-la-Ville,021 882 20 02,-,lagrangeauxcourges@gmail.com,http://www.lagrangeauxcourges.ch,PER IP-Suisse,"Coloquintes,Courges musquée de Provence,Courges rouge d’estampes,Courgesttes rondini,Dahlia,Fleurs,Sapins de Noël,Fleurs à cueillir,Fruits frais,Légumes frais,Mirabelles,Poireaux,Pommes,Pommes Boskoop,Pommes cloche,Pommes de terre,Pommes de terre Bintje,Pommes Gravenstein,Pommes Idared,Potimarrons,Pâtissons,Tournesol",Courges de septembre à décembre 7 jours sur 7: 8h-20h.
6.598508,46.7245495,http://www.biovaud.ch/,Ferme du Petit Noyer,-,Deytard Stéphane,Route d'Ependes 4,1433 Suchy,079 364 62 66,-,deytard@gmail.com,www.fermealanoix.ch,-,"Colza,Tournesol,Céréales anciennes,Blés moderne et anciens,",jeudi 17h à 19h
6.5303815,46.6135954,http://www.marchepaysan.ch/site/fr/trouver-un-producteur/par-produits/-90-epars-pierre-alain-et-laurence/,Epars Pierre-Alain et Laurence,Vente directe en libre-service,"""La Vigne""",Rte de Penthaz 5,Penthalaz,021 861 40 96,-,pa.epars@bluewin.ch,http://www.marchelavigne.sitew.ch,PER,"Confitures,Courgesttes à l’aigre doux,Endives,Fruits en conserve,Fruits frais,Huile de colza,Huile de noix,Huiles,Jus de fruits,Jus de pomme pasteurisé,Légumes en conserve,Légumes frais,Miel,Oeufs,Oeufs de poule,Pommes,Pommes de terre,Produits de la ruche,Raisinée,Rampon",-
6.235972,46.4635194,http://www.marchepaysan.ch/site/fr/trouver-un-producteur/par-produits/-24-distillerie-de-bassins/,Distillerie de Bassins,Magasins en ville,Familles Genevay et Guenin,Rue la Ravière 16,Bassins,022 366 15 46,-,distillerie_de_bassins@bluewin.ch,http://www.distilleriedebassins.ch,PER,"Cosmétiques,Fruits en conserve,Huiles,Essentielles,Savons,Sirops",-
6.4503897,46.6911376,http://www.biovaud.ch/,Fazan Eric,-,Fazan Eric,Ruelle de Couvaloup 2,1143 Apples,079 325 49 74,-,eric.fazan@bluewin.ch,-,-,"Courges,Blés moderne (bise),Sarrasin,Épeautre,Confitures,Miel",Self 8h-19h tous les jours
6.5423136,46.5788152,http://www.biovaud.ch/,Ferme David,-,Horisberger André,Grand-Vigne 7,1302 Vufflens-la-Ville,079 232 62 54,-,a.horisberger@bluewin.ch,www.ahoris.com,-,"Courges,Boeuf,Agneau,Noix,",self (courges) et sur commande (viande huile de noix): 021 861 43 09 a.horisberger@bluewin.ch self
6.5646116,46.6837184,http://www.marchepaysan.ch/site/fr/trouver-un-producteur/par-produits/-92-1001-courges/,1001 courges,Vente directe en libre-service,Famille Jean-Mairet,Rte de Chavornay 1,Bavois,079 241 19 68,079 797 41 74,site@1001courges.ch,http://www.1001courges.ch,PER,"Courges,Courges musquée de Provence,Courges rouge d’estampes,Légumes frais,Potimarrons",Hors saison des courges (fin août à début décembre) le stand est fermé.
6.8350322,46.5618028,http://www.biovaud.ch/,Kilchenmann Anne-Rose,-,Kilchenmann Anne-Rose,-,1595 Faoug,079 582 12 83,-,-,-,-,"Courges,Fleurs à la coupe,",Self service de juin à octobre
6.5082883,46.5879074,http://www.marchepaysan.ch/site/fr/trouver-un-producteur/par-produits/-83-marche-cuendet/,Marché Cuendet,Marché ou magasin à la ferme,Marché Cuendet,Rte de Bussigny 66,Bremblens,021 801 58 40,076 380 38 80,info@marche-cuendet.ch,http://www.marche-cuendet.ch,PER IP-Suisse,"Courges,Fruits de saison,Fruits frais,Herbes aromatiques,Tisanes,Jus de fruits,Jus de pomme pasteurisé,Légumes de saison,Légumes frais,Menthe,Noix,Oeufs,Oeufs de poule,Persil,Pommes,Pommes de terre,Sauge",Jeudi: 14h-18h
6.2373793,46.4235869,http://www.biovaud.ch/,Jaggi ferme,-,Jaggi Francis,Rue du Château 10,1267 Coinsins,077 409 00 58,-,vdfrancis@hotmail.com,www.jaggiferme.ch,-,"Courges,Pomme de terre,Vaches,Chèvres,Brebis,Yogourts,Oeufs de poules,Colza,Tournesol,Caméline,Lentille,Pois chiche,Soja,Tofu frais du domaine,Engrain,Graine de tournesol,Sarrasin,Avoine,Blés moderne,Céréales anciennes,Sarrasin,Épeautre,Jus de pommes,Pain au levain,Engrain mercredi et samedi,Miel",Self de 8 à 19h
6.4831357,46.5725846,http://www.marchepaysan.ch/site/fr/trouver-un-producteur/par-produits/-36-la-ferme-de-primapraz/,La Ferme de Primapraz,Marché en ville,Jean-Rémy Chevalley,Primapraz - Puidoux,Puidoux,021 946 39 76,-,ferme.primapraz@bluewin.ch,http://,PER,"Fleurs,Sapins de Noël,Fleurs à cueillir,Fruits de saison,Fruits frais,Lait de vache,Légumes de saison,Légumes frais,Oeufs,Oeufs de poule,Produits laitiers de vache,Viandes diverses",Vevey Mardi et samedi: 6h-12h Cully Jeudi: 7h-12h.
6.8477736,46.6951937,http://www.marchepaysan.ch/site/fr/trouver-un-producteur/par-produits/-15-jaquier-jean-francois/,Jaquier Jean-François,Marché ou magasin à la ferme,Jaquier Jean-François,Le Pâquis 1,Curtilles,021 906 88 59,-,-,http://,PER,"Fleurs,Sapins de Noël,Fleurs à cueillir,Sapins de Noël",Grand marché aux sapins du 1er au 24 décembre: 9 à 17h.
6.564184,46.767738,http://www.marchepaysan.ch/site/fr/trouver-un-producteur/par-produits/-30-burdet-jean-alfred/,Burdet Jean-Alfred,Autocueillette,Burdet Jean-Alfred,Chemin de Dessous la Vy 1,Mathod,024 459 17 75,-,fraisesmathod@bluewin.ch,http://www.fraisesacueillir.ch/,PER,"Fraises,Fruits frais,Haricots,Légumes frais",-
6.350587,46.679825,http://www.marchepaysan.ch/site/fr/trouver-un-producteur/par-produits/-99-alpage-de-la-petite-dent/,Alpage de la Petite Dent,Vente directe sur rendez-vous,Fuchs Patrick et Aude,Rte de la Vallée 3,Vaulion,021 843 08 06,-,patrick-aude@bluewin.ch,http://,PER,"Fromages mi-dur,Produits laitiers de vache,Tommes",-
6.5073012,46.5701294,http://www.biovaud.ch/,Vuillemin Rémy et fils,-,Vuillemin Rémy et fils,Route de Cronay 17,1405 Pomy,079 281 20 71,024 425 90 86,info@vullieminpomy.ch,www.vullieminpomy.ch,-,"Fruits (à pépins et noyaux),Petits fruits,Cerises,Pruneaux,Maraichage,Courges,Pommes de terre,Vaches,Brebis,Brebis,Oeufs de poules,Jus de pommes,Confitures",Self 8h-18h30 tous les jours
6.4012641,46.4809273,http://www.biovaud.ch/,Domaine de Fermens,-,Silva Hector,Domaine de Fermens 1,1143 Apples,079 446 20 61,-,info@fermens.ch,www.fermens.ch,-,"Fruits (en revente),Maraichage,Courges,Pommes de terre (en partie en revente),Plantes aromatiques",Du LU au SA dès 17h
6.9956624,46.2567369,http://www.biovaud.ch/,La Ferme de Bornuit,-,Nanchen AF et JL,Route des Placettes 16,1880 Bex,024 463 29 40,-,lafermedebornuit@gmail.com,www.lafermedebornuit.ch,-,"Fruits de saison,Légumes de saison,Oeufs de poules,",vendredi de 10h00 à 18h00 et 1 samedi/2 de 9h00 à 13h00 et shop en ligne
6.505282,46.717509,http://www.biovaud.ch/,Champs sans Dîme,-,Frey Patrick,32 rue des Fontaines,1352 Agiez,024 441 45 04,-,champssansdime@bluewin.ch,www.champssansdime.ch,-,"Fruits de saison,Maraichage,Pomme de terre,Courges,Etc,",LU: 16h30-18h30
6.6216297,46.829507,https://www.a-la-ferme.ch/chercher-des-offres/details/farm/maison-di-sellier/,Maison di Sellier,-,Claire Thévenaz,La Chaux 5,1420 Fiez,-,076 566 26 42,-,-,Bio Suisse,"Fruits,Baies,Noix,Autres fruits,Spécialités,Huiles de cuisine",-
6.6429454,46.7779226,https://www.a-la-ferme.ch/chercher-des-offres/details/farm/la-ferme-aux-framboises/,La ferme aux framboises,-,Roger et Anne Augsburger-Zeller,route d'Orbe 2,1438 Mathod,024 459 20 12,076 467 45 41,roger_anne@vonet.ch,-,-,"Fruits,Baies,Noix,Framboises,Groseilles rouges,Groseilles à maqueraux,Spécialités,Huiles de cuisine,Produits à base de lait,Autres glacés",-
6.1764876,46.3086731,https://www.a-la-ferme.ch/chercher-des-offres/details/farm/agro-idee-sarl/,Agro-Idée Sàrl,Stand de marché,Vincent Echenard,Impasse du Puits-Ballant,1295 Tannay,079 535 94 95,-,contact@agro-idee.ch,-,Bio Suisse,"Fruits,Baies,Noix,Pommes,Poires,Abricots,Cerises,Pêches,Mûres,Fraises,Framboises,Groseilles rouges,Kiwi,Spécialités,Sauces,Autres miels,Boissons,Jus de pomme,Légumes,Salades,Herbes,Champignons,Légumes,Diverses herbes/épices",-
6.507898,46.584799,http://www.biovaud.ch/,Marché Bio Kalt,-,Kalt Thomas,Les Etrepis 2,1124 Gollion,021 861 11 81,-,marchebiokalt@hotmail.com,www.marche-bio-kalt.ch,-,"Fruits,Légumes,Produits laitiers,Oeufs de poules,Boeuf,Porc,Cabris,Farines,Pains,Miel,Confitures,Tofu",ME et VE 8h30 - 18h30 SA 8h30-17h
6.6150612,46.8552868,http://www.biovaud.ch/,Ferme la Lizerne,-,Devenoge François,rue du village 16,1204 Dizy,078 640 67 67,-,francoisdizy@hotmail.com,-,-,"Fruits,Maraichage (bcp de tomates),Courges,Pommes de terre,Vaches,Chèvres,Chèvres,Oeufs de poules,Boeuf,Porc,Cabris,Colza,Tournesol,Caméline,Chanvre,Jus de fruits (pommes),Plantes aromatiques,Plantons,Fleurs à la coupe,Conserves,Confitures",7j/7
6.6216297,46.829507,http://www.biovaud.ch/,Thévenaz-Berney Claire et Thévenaz Michel,-,Thévenaz-Berney Claire et Thévenaz Michel,La chaux 5,1420 Fiez,024 436 15 06,-,rufiez1420@gmail.com,-,-,"Fruits,Noix,Oeufs de poules,Huile de noix,Jus de pommes",self et sur RDV: 076 566 26 42 024 436 15 06
6.2631045,46.4369134,http://www.biovaud.ch/,Domaine de Roveray,-,Suter Christophe et Lise-Catherine,Domaine de Roveray 192,1170 Aubonne,078 815 35 30,-,roveray@bluewin.ch,www.ofruitier.ch,-,"Fruits,Petits fruits,Jus de fruits,",mardi et jeudi 9h-12h et 15-18h samedi 9h-16h et self service pour fruits 24h/24
6.5881572,46.5584177,http://www.biovaud.ch/,Ferme de Bois-Genoud,-,Zarantonello Mirjam,rte de Bois Genoud 36,1023 Crissier,021 646 02 31,-,mirjz@gmx.ch,www.boisgenoud.ch,-,"Fruits,Petits fruits,Maraichage,Courges,Pomme de terre,Boeuf,Agneau,Blés anciens,",Magasin bio de Bois Genoud: MA ME et VE matin et aprm JE et SA matin: www.boisgenoud.ch
6.5092203,46.5566852,http://www.biovaud.ch/,Association La Branche,-,p. A. David Himmelsbach,Ch. de la Branche 34,1073 Mollie-Margot,021 612 40 30,-,magasin@labranche.ch,www.labranche.ch,-,"Fruits,Petits fruits,Maraichage,Courges,Pommes de terre,Boeuf,Agneau,Céréales,Jus de fruits,Fleurs,Pain,Miel,Confitures",LU à VE: 10h00-19h00 SA: 10h00-17h30
7.1168836,46.467566,http://www.biovaud.ch/,Luchino Serge,-,Luchino Serge,Chemin de la Grangette 199,1090 La Croix,021 791 26 24,-,s.luchino@bluewin.ch,-,-,"Fruits,Petits fruits,Maraichage,Courges,Pommes de terre,Oeufs de poules,Confitures,Miel",MA et VE: 16h30-19h
6.6693594,46.840031,http://www.biovaud.ch/,La Gottalaz,-,Zwyssig Dominik,Route de Fontanezier 4,1427 Bonvillars,024 436 17 26,-,info@gottalaz.ch,www.gottalaz.ch,-,"Fruits,Petits fruits,Myrtilles,Boeuf,Agneau,Sirops,Confitures,Fruits secs",sur commande: info@gottalaz.ch
7.0005932,46.2992226,http://www.biovaud.ch/,Plaisir et Santé,-,Petralia Onorio + Ruth,ch. du Moulin 11,1867 Ollon,024 499 20 30,-,or.petralia@bluewin.ch,www.plaisir-et-sante.ch,-,"Huiles et vinaigres aromatisées,Sirops,Jus de fruits,Vins,Liqueurs,Tisanes,Cosmétiques,Huiles massages,Crème,Conserves,Chutneys,Confitures,Gelées",Sur demande: plaisir-et-sante@bluewin.ch
6.3994991,46.5725033,http://www.biovaud.ch/,Domaine de la Capitaine,Magasin à la ferme,Parmelin Reynald,En Marcins 4,1196 Gland/Begnins,022 366 08 46,-,info@lacapitaine.ch,www.lacapitaine.ch,-,"Jus de pomme et de raisins,Vins",samedi 9h30 à 12h toute la semaine 7h-18h
6.735676,46.779088,http://www.biovaud.ch/,Besson Pierre-André,-,Besson Pierre-André,Niédens dessous 3,1462 Yvonand,024 430 21 91,-,pabessonline@bluewin.ch,-,-,"Légumes,Oeufs de poules,Volaille,Saucisse sèche,Porc,Soja,Quinoa,Sirops,Conserves,Confitures,Sauce",Self service 24h/24h sur demande: 079 400 11 74
6.6283816,46.7189777,http://www.biovaud.ch/,Pilloud Philippe et Guillaume,-,Pilloud Philippe et Guillaume,Route de la Robellaz 4,1432 Belmont,079 338 32 67,-,exploitation.pilloud@gmail.com,-,-,"Légumes,Pomme de terre,Courges,Boeuf",Sur demande: 079 338 32 67 exploitation.pilloud@gmail.com
7.16535,46.47112,https://www.a-la-ferme.ch/chercher-des-offres/details/farm/mont-dessus-et-mont-dessous-alpages/,Mont-Dessus et Mont-Dessous  Alpages,Magasin à la ferme,Laetitia Jacot,Gérignoz,1660 Château-d'Oex,026 923 78 69,079 286 72 70,-,-,Bio Suisse,"Légumes,Salades,Herbes,Champignons,Autres herbes,épices et thés,Produits à base de lait,Autres produits laitiers,Boissons,Sirops",-
6.4511645,46.6913279,https://www.a-la-ferme.ch/chercher-des-offres/details/farm/association-terre-ferme/,Association Terre Ferme,Service de livraison,Association Terre Ferme,Case Postale 1320,1401 Yverdon-les-Bains,079 869 38 22,-,info@terreferme.ch,-,"Bio Suisse, IP-Suisse","Légumes,Salades,Herbes,Champignons,Autres légumes ou salades",-
7.029233,46.8822943,https://www.a-la-ferme.ch/chercher-des-offres/details/farm/le-chat-noir/,Le chat noir,-,Pascale Cornuz,La Ruelle 5,1787 Mur,079 721 69 66,-,info@lechatnoir.ch,-,Bio Suisse,"Légumes,Salades,Herbes,Champignons,Autres légumes ou salades,Autres herbes,épices et thés,Fruits,Baies,Noix,Autres fruits,Boissons,Autres vins,Autres spiritueux,Jus de fruits,Spécialités,Confitures",-
6.3809101,46.4718777,https://www.a-la-ferme.ch/chercher-des-offres/details/farm/ferme-du-chateau/,Ferme du Château,Magasin à la ferme,Wolfram Wawrinka,Ferme du Château 2,1040 St-Bartélemy,021 881 67 12,-,-,-,Bio Suisse,"Légumes,Salades,Herbes,Champignons,Autres légumes ou salades,Fruits,Baies,Noix,Autres fruits,Pain,Produits céréaliers,Pates,Autres articles de boulangerie,Oeufs,Autres oeufs,Carne,Produits carnés,Boissons,Sirops,Spécialités,Confitures",-
6.9537326,46.3170722,https://www.a-la-ferme.ch/chercher-des-offres/details/farm/les-jardins-du-nord/,Les Jardins du Nord,-,Les Jardins du Nord,-,1018 Lausanne,078 746 98 64,-,info@lesjardinsdunord.ch,-,-,"Légumes,Salades,Herbes,Champignons,Autres légumes ou salades,Fruits,Baies,Noix,Autres fruits,Spécialités,Huiles de cuisine,Confitures,Boissons,Sirops",-
6.3994991,46.5725033,https://www.a-la-ferme.ch/chercher-des-offres/details/farm/domaine-des-fermens/,Domaine des Fermens,-,Judith et Hector Ammann et Silva,Domaine des Fermens 1,1143 Apples,021 800 36 18,079 446 20 61,info@fermens.ch,-,Bio Suisse,"Légumes,Salades,Herbes,Champignons,Autres légumes ou salades,Herbes,Fruits,Baies,Noix,Autres fruits",-
6.6809379,46.7217684,https://www.a-la-ferme.ch/chercher-des-offres/details/farm/ferme-devenoges/,Ferme Devenoges,-,François-Pilippe Devenoges,Rue du Village 6B,1304 Dizy,021 861 16 17,-,-,-,Bio Suisse,"Légumes,Salades,Herbes,Champignons,Autres légumes ou salades,Oeufs,Autres oeufs,Boissons,Autres boissons",-
6.6270723,46.6783001,https://www.a-la-ferme.ch/chercher-des-offres/details/farm/fermaventures-de-famille-bovat/,Ferm'aventures de Famille Bovat,-,François et Sonia Bovat,Le Petit Buron,1040 Villars-le-Terroir,021 881 62 51,-,-,-,-,"Légumes,Salades,Herbes,Champignons,Autres légumes ou salades,Pain,Produits céréaliers,Pates,Autres articles de boulangerie,Produits à base de lait,Autres produits laitiers,Oeufs,Autres oeufs,Boissons,Autres boissons,Spécialités,Autres miels,Confitures",-
6.5678104,46.6791009,https://www.a-la-ferme.ch/chercher-des-offres/details/farm/association-pour-la-perrole/,Association pour la perrole,-,Pierre-Alain Schweizer,Route d'Evian 27,1860 Aigle,024 472 26 61,079 479 78 56,-,-,"Bio Suisse, Demeter","Légumes,Salades,Herbes,Champignons,Autres produits végétales,Spécialités,Autres huiles,Vinaigre ou sauces,Pain,Produits céréaliers,Pates,Semoule,Farine,Carne,Viande de veau,Viande d'Agneau,Viande de porc",-
6.6612141,46.5100814,https://www.a-la-ferme.ch/chercher-des-offres/details/farm/terre-vaudoise/,Terre Vaudoise,-,Terre Vaudoise,Grand-Rue 9,1009 Pully,021 614 25 75,021 614 25 76,-,-,-,"Légumes,Salades,Herbes,Champignons,Herbes aromatiques,Aubergines,Endives,Carottes,Courges,Poireaux,Radis,Rhubarbe,Asperges,Tomates,Oignons,Autres légumes ou salades,Champignons de Paris,Autres herbes,épices et thés,Salades,Légumes d'hivers,Produits à base de lait,Fromage au lait de vache,Beurre,Autres produits à base de lait de vache,Lait de vache,Yoghourt au lait de vache,Fromage au lait de chèvre,Séré,Crème,Yoghourt au lait de mouton,Autres produits à base de lait de chèvre,Glaces,Sorbets,Oeufs,Oeufs de poules,Pain,Produits céréaliers,Pates,Boulangeries et pâtisseries sucrées,Boulangeries et pâtisseries salées,Tresse,Farine,Pâtes,Gâteaux,Spécialités,Miel de fleurs,Vinaigre,Caramels,Sauces,Huiles de cuisine,Autres miels,Gelée,Meringues,Autres confiseries,Confitures,Biscuits,Boissons,Vin rouge,Vin blanc,Vin de baies,Vins de dessert,Vin mousseux,Autres vins,Jus de fruits,Jus de pomme,Sirops,Jus de raisin,Jus de poire,Carne,Viande de boeuf,Viande de veau,Viande de porc,Poisson,Produits à base de poisson,Fruits,Baies,Noix,Fraises,Framboises,Raisin blanc,Autres baies,Noix,Châtaignes,Anneaux de pommes séchées,Mélange de fruits secs,Fruits saisonnier",-
6.7603972,46.6367023,https://www.a-la-ferme.ch/chercher-des-offres/details/farm/gerber-perrelet-2/,Gerber-Perrelet,Magasin à la ferme,Maurus + Denise Gerber-Perrelet,Rte de Culliairy 19,1450 La Sagne (Ste-Croix),024 454 18 05,-,-,-,Bio Suisse,"Légumes,Salades,Herbes,Champignons,Pommes de terre",sur demande: 024 454 18 05
6.9612448,46.8576654,https://www.a-la-ferme.ch/chercher-des-offres/details/farm/ferme-de-la-famille-terrin/,Ferme de la famille Terrin,-,Philippe et Annette Terrin,Grange de la Ville,1562 Corcelles-Payerne,026 660 45 28,076 357 20 88,phterrin@bluewin.ch,-,-,"Légumes,Salades,Herbes,Champignons,Pommes de terre",-
6.2725073,46.622407,https://www.a-la-ferme.ch/chercher-des-offres/details/farm/bio-blaser/,Bio-Blaser,Magasin à la ferme,Benjamin & Renate Blaser,Petit Lac 219,1585 Salavaux,026 677 19 70,-,bioblaser@bioblaser.ch,-,"Bio Suisse, Demeter","Légumes,Salades,Herbes,Champignons,Pommes de terre,Courges,Tomates,Salades",-
7.0754029,46.9067414,https://www.a-la-ferme.ch/chercher-des-offres/details/farm/ferme-aebischer/,ferme Aebischer,Magasin à la ferme,Francis Aebischer,ch. du vieux Pressoir 5,1595 Faoug,026 670 37 46,079 385 49 71,david.aebischer@bluewin.ch,-,"IP-Suisse, NaturaBeef, Suisse Garantie","Légumes,Salades,Herbes,Champignons,Pommes de terre,Oeufs,Oeufs de poules,Carne,Viande de boeuf,Volaille,Lapin,Viande de porc,Fruits,Baies,Noix,Pommes",-
6.5899032,46.6340579,https://www.a-la-ferme.ch/chercher-des-offres/details/farm/ferme-la-gordanne/,Ferme la Gordanne,Venir chercher,Elisabeth & Werner Baumgartner,Route d'Allaman 17,1173 Féchy,021 808 80 45,079 216 85 45,-,-,"Suisse Garantie, Swiss GAP","Légumes,Salades,Herbes,Champignons,Pommes de terre,Oeufs,Oeufs de poules,Pain,Produits céréaliers,Pates,Autres produits céréaliers et pâtes",-
7.0605519,46.9448243,http://www.biovaud.ch/,La ferme du chat noir,-,Cornuz Pascale,La Ruelle 5,1787 Mur,026 673 23 65,-,info@lechatnoir.ch,www.lechatnoir.ch,-,"Maraichage,Boeuf,",Sur demande: 079 721 69 66 panier de légume http://www.lechatnoir.ch/abo-legumes.html
6.4963123,46.8107468,http://www.biovaud.ch/,Fromagerie du Joran,-,Weyermann Madlen,Route de Vaulion 14,1324 Premier,079 953 85 54,-,lejoran@atelierltc.ch,-,-,"Maraichage,Courges,Pomme de terre,Chèvres,Soja,Tofu,Mais à Polenta,Tofu,Polenta,",Sur demande: 079 953 85 54
6.5806937,46.6884107,http://www.biovaud.ch/,Ferme du moulin,-,Bovigny Christian,Le moulin 6,1372 Bavois,079 269 53 12,-,christian@biodanza.ch,-,-,"Maraichage,Courges,Pomme de terre,Plantes aromatiques,",JE 14h15-17h30
6.9178857,46.4739527,http://www.biovaud.ch/,Reymond Etienne et Camilla,-,Reymond Etienne et Camilla,En Vallapraz,1123 Aclens,021 869 95 21,-,felix.reymond0389@gmail.com,-,-,"Maraichage,Pomme de terre,Colza,Tournesol,Vins,Jus de fruits",Self et sur RDV: 021 869 95 21
6.4617035,46.5462735,http://www.biovaud.ch/,Ferme Arc-en-Ciel,-,Chezeaux Cédric,Rue du collège 18,1326 Juriens,024 453 10 67,-,cedric@juriens.ch,-,-,"Maraichage,Pommes de terre,Chèvres,Chèvres,Boeuf,Cabris,Caméline,Céréales anciennes,Sarrasin,Épeautre,Blés moderne,Épeautre,Céréales anciennes,Sarrasin,Miel",ME 16h-18h SA 9h-11h
6.9661421,46.3069056,http://www.biovaud.ch/,Dubois Pierre,-,Dubois Pierre,ch.de Tavalles 3 CP 212,1880 Bex,079 689 78 68,-,-,-,-,Miel,sur demande: 079 689 78 68
6.686806,46.602811,http://www.marchepaysan.ch/site/fr/trouver-un-producteur/par-produits/-114-glace-a-la-ferme/,Glace à la ferme,Marché ou magasin à la ferme,Martin Olivier et Marlène,Ch. du Maupas 9,Froideville,021 881 13 70,079 203 29 92,martinoli@citycable.ch,http://,PER IP-Suisse,"Miel,Produits de la ruche,Produits laitiers de vache,Raisinée",Du lundi au samedi.
6.6696009,46.8643751,http://www.marchepaysan.ch/site/fr/trouver-un-producteur/par-produits/-37-ammann-celine/,Couleurs des champs,Vente directe sur rendez-vous,Ammann Céline,Ch. des Vuillerens 10,1423 Fontanezier,024 436 10 60,-,couleurmoutarde@gmail.com,http://www.couleursdeschamps.ch,Bio Suisse,"Moutarde,Vinaigre et condiments",-
6.8330599,46.6886843,http://www.biovaud.ch/,Streit Werner,-,Streit Werner,Pré-Cerjat,1510 Moudon,021 905 14 28,079 796 15 48,awcerjat@bluewin.ch,-,-,Oeufs de poules,Sur demande (021 905 14 28 079 796 15 48)
6.5100019,46.6001747,http://www.biovaud.ch/,Clot des papillons,-,Tissot Corentin,rue du Café des Chasseurs 1,1304 Allens,021 861 08 30,-,qualipepiniere@hotmail.com,-,-,"Oeufs de poules,Poulet,Porc,Colza,Tournesol,Soja,Lentilles,Graine Tournesol,Lin,Céréales,Blés,Blés anciens,Sarrasin,Engrain,Épeautre,Pains",Sur demande: 079 215 43 42
6.5367217,46.644744,https://www.a-la-ferme.ch/chercher-des-offres/details/farm/la-crosse/,La Crosse,Libre-service,Pierre-Alain Etter,Ch.de la Crosse 2b,1070 Puidoux,021 946 19 72,-,pa.etter@bluewin.ch,-,IP-Suisse,"Oeufs,Oeufs de poules,Carne,Charcuterie,Volaille,Spécialités,Vinaigre,Gelée,Confitures,Produits à base de lait,Autres produits à base de lait de vache,Fruits,Baies,Noix,Anneaux de pommes séchées,Boissons,Jus de pomme",-
6.4646057,46.4916009,https://www.a-la-ferme.ch/chercher-des-offres/details/farm/clerc/,Clerc,Libre-service,Etienne Clerc,Rte du Chome 10,1148 Mont-La-Ville,021 864 41 62,079 658 59 27,-,-,Bio Suisse,"Oeufs,Oeufs de poules,Carne,Produits carnés",-
6.3291453,46.4594462,https://www.a-la-ferme.ch/chercher-des-offres/details/farm/ferme-delay/,Ferme Delay,-,Dominique Delay,Le Moulin,1372 Bavois,024 441 45 90,-,-,-,Bio Suisse,"Oeufs,Oeufs de poules,Légumes,Salades,Herbes,Champignons,Autres légumes ou salades,Boissons,Autres vins,Jus de fruits",-
6.6011226,46.7038111,https://www.a-la-ferme.ch/chercher-des-offres/details/farm/maillefer-fabienne/,Maillefer Fabienne,-,Fabienne et Alexandre Maillefer,Rte de Pailly 13,1047 Oppens,-,-,info@cidrerie.ch,-,Bio Suisse,"Oeufs,Oeufs de poules,Légumes,Salades,Herbes,Champignons,Autres légumes ou salades,Fruits,Baies,Noix,Autres fruits",-
6.377495,46.554406,https://www.a-la-ferme.ch/chercher-des-offres/details/farm/domaine-des-biolettes/,Domaine des Biolettes,Magasin à la ferme,Gilles Roch,Chemin de la Prélas 2,1144 Ballens,021 809 56 29,079 624 91 24,gilles.roch@bluewin.ch,-,Bio Suisse,"Oeufs,Oeufs de poules,Légumes,Salades,Herbes,Champignons,Autres légumes ou salades,Fruits,Baies,Noix,Autres fruits,Autres baies,Spécialités,Huiles de cuisine,Pain,Produits céréaliers,Pates,Farine,Boissons,Jus de fruits,Autres produits alimentaires,Autres produits alimentaires",JE: 16h30- 19h
6.6303209,46.5341574,https://www.a-la-ferme.ch/chercher-des-offres/details/farm/les-jardins-du-flon/,Les Jardins du Flon,-,Les Jardins du Flon,Place Chauderon 5,1003 Lausanne,076 543 00 79,-,info@lesjardinsduflon.ch,-,IP-Suisse,"Oeufs,Oeufs de poules,Légumes,Salades,Herbes,Champignons,Autres légumes ou salades,Fruits,Baies,Noix,Autres fruits,Spécialités,Huiles de cuisine,Confitures,Boissons,Sirops",-
7.022657,46.2330088,https://www.a-la-ferme.ch/chercher-des-offres/details/farm/les-jardins-douchy/,Les Jardins d'Ouchy,-,Les Jardins d'Ouchy,Avenue Dapples 50,1006 Lausanne,076 543 00 79,-,info@lesjardinsdouchy.ch,-,IP-Suisse,"Oeufs,Oeufs de poules,Légumes,Salades,Herbes,Champignons,Autres légumes ou salades,Fruits,Baies,Noix,Autres fruits,Spécialités,Huiles de cuisine,Confitures,Miel,Boissons,Sirops",-
6.7356655,46.7790809,https://www.a-la-ferme.ch/chercher-des-offres/details/farm/famille-besson-kamila-et-pierre-andre/,Famille Besson Kamila et Pierre-André,-,Pierre-André Besson,Niédens dessous 3,1462 Yvonand,-,-,-,-,Bio Suisse,"Oeufs,Oeufs de poules,Oeufs de poules",-
6.4241928,46.549633,https://www.a-la-ferme.ch/chercher-des-offres/details/farm/ferme-de-la-famille-meldem/,Ferme de la famille Meldem,-,Martine et Bertrand Meldem,Le Tirage 10,1143 Apples,021 800 38 61,079 913 21 96,info@marchepaysan.ch,-,-,"Oeufs,Oeufs de poules,Pain,Produits céréaliers,Pates,Boulangeries et pâtisseries sucrées,Boulangeries et pâtisseries salées,Croissants,Ballons,Petits pains au lait,Tresse,Autres articles de boulangerie,Pain,Gâteaux,Pain paysan,Pain cuit au four à bois,Fruits,Baies,Noix,Mûres,Fraises,Myrtilles,Framboises,Sureau,Groseilles rouges,Airelles,Groseilles à maqueraux,Raisin rouge,Raisin blanc,Autres baies,Produits à base de lait,Lait de bufflonne,Lait de jument,Autres produits laitiers,Boissons,Bière blonde,Bière brune,Bière non filtrée,Autres bières,Jus de fruits,Jus de légumes,Limonades,Jus de pomme,Jus de fruits,Sirops,Autres boissons,Jus de raisin",-
6.9621801,46.3146253,https://www.a-la-ferme.ch/chercher-des-offres/details/farm/domaine-de-roveray/,Domaine de Roveray,-,Christophe et Lise-Catherine Suter,Domaine de Roveray,1170 Aubonne,021 807 37 07,079 298 35 34,roveray@bluewin.ch,-,Bio Suisse,"Oeufs,Oeufs de poules,Spécialités,Miel de fleurs,Confitures,Légumes,Salades,Herbes,Champignons,Autres légumes ou salades,Fruits,Baies,Noix,Autres fruits,Autres baies,Pain,Produits céréaliers,Pates,Céréales complètes,Pain,Produits à base de lait,Autres produits laitiers,Autres produits laitiers,Boissons,Autres vins,Autres spiritueux,Jus de fruits",-
6.7870702,46.4933246,https://www.a-la-ferme.ch/chercher-des-offres/details/farm/maraicher-bio-gemuesebau/,Maraîcher bio Gemüsebau,Magasin à la ferme,Urs Gfeller,Route de Romont 8,1554 Sédeilles,026 658 17 17,076 559 98 89,info@gfellerbio.ch,-,Bio Suisse,"Oeufs,Oeufs de poules,Spécialités,Miel de fleurs,Huiles de cuisine,Confitures,Légumes,Salades,Herbes,Champignons,Autres légumes ou salades,Fruits,Baies,Noix,Autres fruits,Autres baies,Pain,Produits céréaliers,Pates,Autres produits céréaliers et pâtes,Boissons,Jus de fruits",-
6.4982497,46.7044562,https://www.a-la-ferme.ch/chercher-des-offres/details/farm/la-saugette/,La Saugette,Magasin à la ferme,Pascal Buache,La Saugette,1580 Avenches,026 675 23 30,079 690 67 59,pascalbuache@bluewin.ch,-,Bio Suisse,"Pain,Produits céréaliers,Pates,Autres produits céréaliers et pâtes,Oeufs,Autres oeufs,Spécialités,Autres miels,Légumes,Salades,Herbes,Champignons,Légumes,Fruits,Baies,Noix,Fruits saisonnier",-
6.9865719,46.293378,https://www.a-la-ferme.ch/chercher-des-offres/details/farm/wuethrich/,Ferme de Praz Constant,Magasin à la ferme,Andreas Wüthrich,Praz Constant,1070 Puidoux,021 946 27 34,-,andreas.wuthrich@bluewin.ch,-,"Bio Suisse, Demeter","Pain,Produits céréaliers,Pates,Céréales complètes,Produits à base de lait,Autres produits laitiers,Carne,Autres viandes",-
7.0245806,46.9186957,http://www.biovaud.ch/,Buache Pascal,-,Buache Pascal,Route de la Saugette 17,1580 Avenches,079 690 67 59,-,pascalbuache@bluewin.ch,-,-,"Pommes,Maraichage,Courges,Pommes de terre,Tomates,Concombres,Salades,",sur demande: 079 690 67 59
6.8089598,46.6568703,http://www.biovaud.ch/http://www.biovaud.ch/,Ferme BIO les Sapins,-,Jean-Daniel et Théo Waber & Grossenbacher,les Sapins 2,1114 Colombier,021 800 33 34,-,v.t.grossen@gmail.com,-,-,"Pommes,Poires,Petit Fruits,Maraichage (légumes à feuille et de garde),Courges,Oeufs de poules,Boeuf,Huile pimentée et autres,Conserve au vinaigre,Jus de pomme,Herbettes de cuisine selon saison,Pain,Tresse,Confiserie de la ferme,Confitures,Miel",VE 16h-18h15 et SA 9h-12h
6.4078105,46.64625,http://www.biovaud.ch/,La Sauvageraie,-,Siffert Frank,Rue des Juifs 10,1427 Bonvillars,079 210 75 41,-,info@sauvageraie.ch,www.sauvageraie.ch,-,"Pommes,Poires,Petits fruits,Raisin,Maraichage,Courges,Pommes de terre,Légumes PSR,Oeufs de poules,Agneau,Porc,Saucisson,Viandes fraîches,Jambon cru Pata Negra,Tournesol,Caméline,Truffe,Céréales anciennes,Sarrasin,Épeautre,Engrain,Seigle,Orge,Épeautre,Céréales anciennes,Jus de fruits,Nectar,Sirops,Vins,Spiritueux,Plantes aromatiques,Tisanes,Plantes médicinales,Cosmétiques,Crème,Huiles,Huiles essentielles,Hydrolats,Pain,Conserves,Confitures,Miel,Pesto,Sirops,Gelées,Bouillons,Soupes",ME 17h-19h
6.4310497,46.5525369,https://www.a-la-ferme.ch/chercher-des-offres/details/farm/bovay/,Ferme du Martalet,Venir chercher,Jean-Marc Bovay,Route de Prahins 1,1415 Démoret,024 433 17 59,-,bovay.jean-marc@bluewin.ch,www.fermedumartalet.com,Bio Suisse,"Produits à base de lait,Autres produits à base de lait de vache,Spécialités,Confitures",Sur demande: 079 778.45.06
7.1726041,46.4217544,https://www.a-la-ferme.ch/chercher-des-offres/details/farm/plan-de-louge/,Plan de l'Ouge,Venir chercher,Maurice Henchoz,Route de la Torneresse 17,1660 L'Etivaz,026 924 70 30,-,mauricehenchoz@bluewin.ch,-,Bio Suisse,"Produits à base de lait,Autres produits laitiers,Carne,Produits carnés",-
6.7820911,46.7571532,https://www.a-la-ferme.ch/chercher-des-offres/details/farm/la-gaite/,La Gaité,-,Richard Bettex,la Gaîté,1537 Champtauroz,026 666 13 91,-,-,-,-,"Produits à base de lait,Fromage au lait de chèvre,Yoghourt au lait de chèvre,Lait de chèvre,Autres produits à base de lait de chèvre",-
6.4397249,46.4775841,https://www.a-la-ferme.ch/chercher-des-offres/details/farm/ferme-de-la-famille-mottier/,Ferme de la famille Mottier,-,Pierre-François Mottier,le Chêne,1669 Les Moulins,026 924 41 02,-,-,-,-,"Produits à base de lait,Fromage au lait de vache,Autres produits à base de lait de vache,Carne,Autres viandes",-
6.208524,46.4362207,https://www.a-la-ferme.ch/chercher-des-offres/details/farm/bolay/,Bolay,Libre-service,Nicolas Bolay,Ch. de la Branche 7,1272 Genolier,022 366 31 09,079 507 03 81,-,-,-,"Produits à base de lait,Fromage au lait de vache,Oeufs,Oeufs de poules,Carne,Charcuterie,Charcuterie,Viande de boeuf,Produits carnés,Fruits,Baies,Noix,Autres produits à base de fruits",-
6.930913,46.42638,https://www.a-la-ferme.ch/chercher-des-offres/details/farm/ferme-de-viret/,Ferme de Viret,-,Christophe und Aline Viret,Rue de la Vireuse 4,1124 Gollion,021 862 10 78,-,-,-,-,"Produits à base de lait,Fromage au lait de vache,Sorbets,Autres glacés,Légumes,Salades,Herbes,Champignons,Autres produits végétales,Fruits,Baies,Noix,Autres fruits",-
6.838489,46.560819,https://www.a-la-ferme.ch/chercher-des-offres/details/farm/hockenjos-christian/,Hockenjos Christian,Libre-service,Christian Hockenjos,Chemin de Serix 2a,1607 Palézieux-Village,021 907 89 08,079 282 53 75,cihockenjos@bluewin.ch,-,Bio Suisse,"Spécialités,Autres huiles,Vinaigre ou sauces,Confitures,Produits à base de lait,Autres produits laitiers,Oeufs,Autres oeufs,Carne,Autres viandes,Boissons,Autres boissons",-
6.6325333,46.5219944,https://www.a-la-ferme.ch/chercher-des-offres/details/farm/praz-tecoz/,Praz-Tecoz,Venir chercher,Dori & Louis Guignard,Rue du Carre 22,1439 Rances,-,-,dlguignard@bluewin.ch,-,IP-Suisse,"Spécialités,Autres miels",-
7.0073619,46.3547301,https://www.a-la-ferme.ch/chercher-des-offres/details/farm/jeanmonod-beatrice/,Jeanmonod Béatrice,Venir chercher,Béatrice Jeanmonod,Au Village 1,1421 Grandevent,024 436 23 91,-,-,-,-,"Spécialités,Caramels",-
6.468843,46.5560686,https://www.a-la-ferme.ch/chercher-des-offres/details/farm/ferme-de-la-famille-cornamusaz/,Ferme de la famille Cornamusaz,-,Annie & Alain Cornamusaz,Route de Payerne 13,1552 Trey,024 494 23 76,079 813 77 76,-,-,-,"Spécialités,Caramels,Confitures,Produits à base de lait,Autres produits à base de lait de vache",-
6.5413459,46.5775809,https://www.a-la-ferme.ch/chercher-des-offres/details/farm/ecurie-de-la-venoge/,Ecurie de la Venoge,Venir chercher,David Goy,Rue de la Poste 21,1302 Vufflens-la-Ville,021 702 21 47,-,-,-,IP-Suisse,"Spécialités,Huiles de cuisine",-
7.0605519,46.9448243,https://www.a-la-ferme.ch/chercher-des-offres/details/farm/le-confiturier/,Le Confiturier,-,Roselyne Risse,Rue du Collège 6,1353 Bofflens,024 441 29 81,079 254 37 48,roselyne.risse@bluewin.ch,-,IP-Suisse,"Spécialités,Vinaigre,Sauces,Confitures,Fruits,Baies,Noix,Autres produits à base de fruits,Boissons,Sirops,Autres boissons,Légumes,Salades,Herbes,Champignons,Teemischungen",-
7.1370368,46.476017,http://www.biovaud.ch/,Pléiades des saveurs,-,Zwicky Michel + Anne-Christine,Route des Monts 20,1807 Blonay,021 943 44 61,-,michel.zwicky@bluemail.ch,-,-,"Tisanes,Herbe aromatiques,Sirops",Sur demande en automne: 021 943 44 61
6.459237,46.51746,http://www.biovaud.ch/,Château de Denens,-,de Buren Pierre,Ruelle du Château 7,1135 Denens,021 803 15 34,-,chateau_denens@yahoo.fr,www.chateaudedenens.com,-,"Truffes,Vins,",Sur demande: 079 401 92 55
7.1370368,46.476017,http://www.biovaud.ch/,Mottier Nicolas,-,Mottier Nicolas,Grande Rue 121,1660 Château-d'Oex,026 924 69 89,-,mottier-gerber@bluewin.ch,www.votre-cercledevie.ch,-,"Vache,Boeuf,Lapin,Peau",Mardi à Samedi: 09h00-12h30 Mercredi et Vendredi: 14h00-18h00
6.3806711,46.69358,http://www.biovaud.ch/,Henchoz Stéphane et Nicolas,-,Henchoz Stéphane et Nicolas,route de la Torneresse 17,1660 L'Etivaz,079 744 53 68,-,-,-,-,"Vaches (Plan d'Ouges et Chalotet),Sérac,Boeuf,Porc d'alpage",Sur demande: 079 682 35 07
6.824095,46.549442,http://www.biovaud.ch/,Chevalley Pierre-Alain,-,Chevalley Pierre-Alain,ch. des Adoux 6,1607 Palézieux,021 907 91 85,-,p-a_chevalley@hotmail.com,-,-,"Vaches,Agneau",sur demande: 021 907 91 85
6.6682877,46.8498561,http://www.biovaud.ch/,La Ferme des Collines,-,Clerc Etienne,rte de Chôme 10,1148 Mont-la-ville,079 658 59 27,-,fermedescollines@bluewin.ch,-,-,"Vaches,Oeufs de poules,Caméline,Engrain",livraison 1x par semaine sur demande: 079 658 59 27
6.787054,46.760374,http://www.biovaud.ch/,Ferme de la Cottaire,-,Coigny Etienne,Impasse de la Fontaine 7,1537 Champtauroz,079 366 31 16,-,coigny.duc@bluewin.ch,www.fermelacottaire.ch,-,"Vaches,Yogourts",16h30-17h30
7.5586845,46.3002142,http://www.marchepaysan.ch/site/fr/trouver-un-producteur/par-produits/-111-caves-du-paradis/,Caves du Paradis,Marché ou magasin à la ferme,Famille Roten,Rte de la Gemmi 135,Sierre,027 455 19 03,-,roten@cavesduparadis.ch,http://www.cavesduparadis.ch,PER,"Vin blanc,Vin rosé,Vin rouge,Vins",Tous les produits Lu au Ve de 8 h à 11 h 30 et de 13 h 30 à 17 h 30.
6.4592264,46.517482,http://www.biovaud.ch/,Cidrerie de Grosse Pierre,-,Maillefer Fabienne,-,1047 Oppens,078 640 38 00,-,fabienne.maillefer@bluewin.ch,www.cidrerie.ch,-,"Vinaigre de cidre,Cidre,Eau de vie de cidre","Sur demande: 078 658 77 00 info@cidrerie.ch ou dans les magasins revendeurs"""
6.382471,46.6734619,http://www.biovaud.ch/,Muller Anne,-,Muller Anne,Les Maisons Neuves 15,1853 Yvorne,079 672 64 15,-,anne@annemuller.ch,www.annemuller.ch,-,Vins,Sur demande: 079 672 64 15
6.7910506,46.4797199,http://www.biovaud.ch/http://www.biovaud.ch/,Domaine Faverges,-,Vallelian Gerald,Route De Chardonne 60,1071 Chexbres,021 946 49 17,-,faverges@sunrise.ch,www.domainedesfaverges.ch,-,Vins,Sur demande 021 946 49 17
6.7370885,46.4898202,http://www.biovaud.ch/,Domaine Pierre Fonjallaz,-,Fonjallaz Pierre,Route de Vevey 57,1096 Cully,021 799 16 59,-,pierre@vins-fonjallaz.ch,www.vins-fonjallaz.ch,-,Vins,sur demande 021 799 16 59
6.7528186,46.703153,http://www.biovaud.ch/,La Treille d'Or,-,Cevey Thierry,Route des hôtels 5,1884 Villars-sur-Ollon,024 495 78 61,-,info@latreilledor.ch,www.latreilledor.ch,-,"Vins,Spiritueux,Jus de fruits",La treille d'or: LU au SA 10-12h 15h-18h